name,city,state,attend,denom,lat,lon
Beulah Alliance Church,Edmonton, AB,2400,CMA,53.535411,-113.507996
Centre Street Church,Calgary, AB,7000,EVAN,51.046095,-114.065465
Sherwood Park Alliance Church,Sherwood Park, AB,2000,CMA,53.525696,-113.296631
Crossroads Church,Red Deer County, AB,2000,UNK,52.114167,-113.766111
First Alliance Church,Calgary, AB,3000,CMA,51.046095,-114.065465
Anchorage Baptist Temple,Anchorage, AK,2200,BAPT,61.216313,-149.894852
ChangePoint,Anchorage, AK,3300,NONDENOM,61.216313,-149.894852
Word Alive International Outreach,Oxford, AL,3300,NONDENOM,33.614921,-85.833939
Oakwood College Church,Huntsville, AL,2000,SDA,34.729847,-86.585901
Daystar Family Church,Northport, AL,2200,NONDENOM,33.229298,-87.577129
The Rock Family Worship Center,Huntsville, AL,2500,NONDENOM,34.729847,-86.585901
The Church at Brook Hills,Birmingham, AL,4500,SBC,33.520682,-86.802433
First Baptist Church,Prattville, AL,2500,SBC,32.464025,-86.459697
Ridgecrest Baptist Church,Dothan, AL,2500,SBC,31.223743,-85.393391
Willowbrook Baptist Church,Huntsville, AL,2900,SBC,34.729847,-86.585901
Mayfair Church of Christ,Huntsville, AL,1800,COC,34.729847,-86.585901
Sixth Avenue Baptist Church,Birmingham, AL,2000,BAPT,33.520682,-86.802433
Metro Church of God,Birmingham, AL,2000,COG,33.520682,-86.802433
Frazer United Methodist Church,Montgomery, AL,3704,UMC,32.366966,-86.300649
Hunter Street Baptist Church,Hoover, AL,3320,SBC,33.384893,-86.807048
Daystar Church,Cullman, AL,2000,COG,34.174841,-86.84358
Faith Chapel Christian Center,Birmingham, AL,3000,UNK,33.520682,-86.802433
More Than Conquerors Faith Church,Birmingham, AL,3000,UNK,33.520682,-86.802433
Christ United Methodist Church,Mobile, AL,2095,UMC,30.694357,-88.043054
Whitesburg Baptist Church,Huntsville, AL,2500,SBC,34.729847,-86.585901
Union Chapel MB Church,Huntsville, AL,2000,BAPT,34.729847,-86.585901
Mountaintop Community Church,Birmingham, AL,2000,NONDENOM,33.520682,-86.802433
Calvary Assembly,Decatur, AL,2200,AG,34.60602,-86.983817
Lindsay Lane Baptist Church,Athens, AL,1800,SBC,34.804549,-86.97117
Briarwood Presbyterian Church,Birmingham, AL,3800,PCA,33.520682,-86.802433
The Worship Center Christian Church,Birmingham, AL,2000,NONDENOM,33.520682,-86.802433
Epicchurch.Tv,Decatur, AL,2081,NONDENOM,34.60602,-86.983817
Shades Mountain Baptist Church,Birmingham, AL,2756,SBC,33.520682,-86.802433
First Baptist Church,Tuscaloosa, AL,3000,SBC,33.209561,-87.567526
New Hope Baptist Church,Birmingham, AL,3000,BAPT,33.520682,-86.802433
First Baptist Church,Montgomery, AL,2500,SBC,32.366966,-86.300649
First Baptist Church Opelika,Opelika, AL,2443,SBC,32.645412,-85.37828
Harvest Church of God,Anniston, AL,2000,COG,33.659442,-85.831633
Asbury United Methodist Church,Madison, AL,2500,UMC,34.692873,-86.751143
Kingwood Church,Alabaster, AL,2000,AG,33.244281,-86.816377
Gardendale First Baptist Church,Gardendale, AL,3530,SBC,33.660103,-86.81277
Dawson Memorial Baptist Church,Birmingham, AL,2700,SBC,33.520682,-86.802433
Church of the Highlands,Birmingham, AL,22184,NONDENOM,33.520682,-86.802433
Fellowship Northwest Arkansas,Rogers, AR,7100,UNK,36.33202,-94.118537
Central Baptist Church,Jonesboro, AR,2604,SBC,35.842865,-90.703452
First Baptist Church,Bentonville, AR,2200,SBC,36.372854,-94.208817
Family Church,Pine Bluff, AR,2000,NONDENOM,34.215706,-92.01404
Central Baptist Church,Marked Tree, AR,2300,SBC,35.532859,-90.420658
Immanuel Baptist Church,Little Rock, AR,2500,BAPT,34.746481,-92.289595
Cross Church,Springdale, AR,8808,SBC,36.186744,-94.128814
Fellowship Bible Church,Benton, AR,6000,NONDENOM,34.564537,-92.586828
Geyer Springs First Baptist Church,Little Rock, AR,2500,SBC,34.746481,-92.289595
Downtown Church of Christ,Searcy, AR,2000,COC,35.250641,-91.736249
Brand New Church,Harrison, AR,3000,UNK,36.229794,-93.107677
Fellowship Bible Church,Little Rock, AR,4000,NONDENOM,34.746481,-92.289595
Saint Mark Baptist Church,Little Rock, AR,3000,UNK,34.746481,-92.289595
First Assembly of God,North Little Rock, AR,3270,AG,34.769536,-92.267094
Church at Rock Creek,Little Rock, AR,2000,NONDENOM,34.746481,-92.289595
New Life Church,Conway, AR,8205,UNK,35.088696,-92.442101
First Baptist Church,Jonesboro, AR,3000,SBC,35.842865,-90.703452
Harvest Time,Fort Smith, AR,2200,NONDENOM,35.387222,-94.424898
Mission Community Church,Gilbert, AZ,6195,UNK,33.352763,-111.789037
Casas Church,Tucson, AZ,2100,SBC,32.222877,-110.974848
The River of Life Church,Phoenix, AZ,3500,UNK,33.448437,-112.074142
Grace Community Church,Tempe, AZ,1800,NONDENOM,33.425506,-111.940009
Community Church of Joy,Glendale, AZ,2050,LUTH,33.538686,-112.185994
Church for the Nations,Phoenix, AZ,2400,NONDENOM,33.448437,-112.074142
Central Christian Church,Mesa, AZ,8786,CHRISTIAN,33.415112,-111.831479
Victory Assembly,Tucson, AZ,5000,AG,32.222877,-110.974848
North Scottsdale Christian,Scottsdale, AZ,1700,AG,33.494219,-111.926018
Sun Valley Community Church,Gilbert, AZ,5500,NONDENOM,33.352763,-111.789037
Chandler Christian Church,Chandler, AZ,2530,CHRISTIAN,33.306161,-111.84125
Palmcroft Baptist Church,Phoenix, AZ,2000,CBA,33.448437,-112.074142
Living Streams Church,Phoenix, AZ,2000,UNK,33.448437,-112.074142
North Phoenix Baptist Church,Phoenix, AZ,2350,SBC,33.448437,-112.074142
Christ's Church of the Valley,Peoria, AZ,23395,CHRISTIAN,33.580612,-112.237294
Radiant Church,Surprise, AZ,6359,AG,33.629227,-112.368019
Highlands Church,Scottsdale, AZ,3500,NONDENOM,33.494219,-111.926018
Love International Ministries,Phoenix, AZ,4200,NONDENOM,33.448437,-112.074142
Calvary Tucson,Tucson, AZ,5000,NONDENOM,32.222877,-110.974848
Pilgrim Rest Baptist Church,Phoenix, AZ,2200,BAPT,33.448437,-112.074142
Phoenix First Assembly of God,Phoenix, AZ,21000,AG,33.448437,-112.074142
Calvary Community Church,Phoenix, AZ,12000,CAL,33.448437,-112.074142
Palm Valley Community Church,Litchfield Park, AZ,2500,NONDENOM,33.49338,-112.358124
The Living Word Bible Church,Mesa, AZ,4427,UNK,33.415112,-111.831479
Christ Community Church,Tucson, AZ,2200,NONDENOM,32.222877,-110.974848
The Heights Church,Prescott, AZ,3000,CBA,34.539996,-112.468762
Cornerstone Christian Fellowship,Chandler, AZ,6000,NONDENOM,33.306161,-111.84125
Kingdom in the Valley Christian Church,Litchfield Park, AZ,3300,CHRISTIAN,33.49338,-112.358124
City of Grace,Mesa, AZ,4500,NONDENOM,33.415112,-111.831479
Scottsdale Bible Church,Scottsdale, AZ,6234,NONDENOM,33.494219,-111.926018
Pantano Christian Church,Tucson, AZ,2455,CHRISTIAN,32.222877,-110.974848
Redemption Church,Tempe, AZ,4500,NONDENOM,33.425506,-111.940009
Vineyard Christian Fellowship of North Phoenix,Glendale, AZ,4100,VINE,33.538686,-112.185994
Northwest Community Church,Phoenix, AZ,2500,NONDENOM,33.448437,-112.074142
Calvary Chapel of Prescott,Prescott, AZ,2000,CAL,34.539996,-112.468762
Faith Community Church,Tucson, AZ,2500,NONDENOM,32.222877,-110.974848
Spring of Life Christian Church,Mesa, AZ,2100,UNK,33.415112,-111.831479
La Casa de Cristo Lutheran Church,Scottsdale, AZ,2000,LUTH,33.494219,-111.926018
Trinity Baptist Church,Kelowna, BC,2200,ABC,49.887918,-119.495902
Willingdon Church,Burnaby, BC,5000,MEN,49.24338,-122.972546
Broadway Church,Vancouver, BC,2100,UNK,49.279862,-123.116838
Willow Park Church,Kelowna, BC,2000,MEN,49.887918,-119.495902
Northview Community Church,Abbotsford, BC,2700,MEN,49.052116,-122.329479
Bayside Church,Granite Bay, CA,11327,EC,38.763235,-121.163836
Crossroads Church,Grass Valley, CA,2500,UNK,39.219061,-121.06292
Golden Hills Community Church,Brentwood, CA,4000,BGC,37.931777,-121.696027
Saddleback Church,Lake Forest, CA,22055,SBC,33.646926,-117.685921
Allen Temple Baptist Church,Oakland, CA,5500,PNB,37.804456,-122.271356
Rock of Roseville,Roseville, CA,2000,UNK,38.752124,-121.288006
Family Community Church,San Jose, CA,3365,AG,37.336191,-121.890583
The Rock Church and World Outreach Center,San Bernardino, CA,14550,NONDENOM,34.108345,-117.289765
Reality,Carpinteria, CA,3000,NONDENOM,34.398884,-119.518456
The Bridge Bible Church,Bakersfield, CA,2100,NONDENOM,35.373871,-119.019464
Cornerstone Church of San Diego,National City, CA,6300,UNK,32.678109,-117.099197
Saint Paul Baptist Church,Sacramento, CA,2000,SBC,38.581061,-121.493895
Crenshaw Christian Center,Los Angeles, CA,3000,COGA,34.053691,-118.242766
Berendo Street Baptist Church,Los Angeles, CA,2000,BAPT,34.053691,-118.242766
WestGate Church,San Jose, CA,2100,UNK,37.336191,-121.890583
NewSong Church,Irvine, CA,2000,EC,33.685697,-117.825982
Faith Fellowship Foursquare Church,San Leandro, CA,2000,4SQ,37.72493,-122.156077
Abundant Living Family Church,Rancho Cucamonga, CA,4000,NONDENOM,34.103319,-117.575174
Victory Outreach Church,La Puente, CA,2000,UNK,34.01979,-117.950368
Eastside Christian Church,Anaheim, CA,4345,CHRISTIAN,33.834752,-117.911732
Rancho Community Church,Temecula, CA,2500,RCA,33.494635,-117.147366
The Rock Church of Sacramento,Elk Grove, CA,2000,PENT,38.408799,-121.371618
Whittier Area Community Church,Whittier, CA,3000,BGC,33.970878,-118.03084
Mariners Church,Irvine, CA,13567,NONDENOM,33.685697,-117.825982
Harvest Church,Elk Grove, CA,2200,AG,38.408799,-121.371618
Iglesia Cristiana La Familia de Dios,Ontario, CA,1800,BAPT,49.4515636581,-84.2539813003493
Ward African Methodist Episcopal Church,Los Angeles, CA,8000,AME,34.053691,-118.242766
Valley Christian Center Church,Fresno, CA,1800,4SQ,36.739442,-119.784831
Agape International Center for Truth,Culver City, CA,2500,RELSCI,34.021122,-118.396466
Templo Calvario Assembly of God,Santa Ana, CA,11000,AG,33.749495,-117.873221
Crystal Cathedral,Garden Grove, CA,2000,RCA,33.774629,-117.946372
Bel Air Presbyterian Church,Los Angeles, CA,2394,PCUSA,34.053691,-118.242766
Christian Life Center,Stockton, CA,2600,UPCI,39.943248,-75.075573
Neighborhood Church/Three Crosses,Castro Valley, CA,2500,NONDENOM,37.694552,-122.085743
Calvary Chapel,Santa Barbara, CA,2200,CAL,34.422132,-119.702667
Calvary Chapel South Bay,Gardena, CA,9200,CAL,33.896359,-118.305304
CrossPoint Community Church,Modesto, CA,2000,BAPT,37.639097,-120.996878
Sarang Community Church,Anaheim, CA,8000,PCA,33.834752,-117.911732
Calvary Murietta,Murietta, CA,2000,CAL,34.649051,-119.385325
Paradise Alliance Church,Paradise, CA,2100,CMA,47.525593,-52.872414
Seacoast Grace Church,Cypress, CA,3290,NONDENOM,33.824824,-118.039937
Rolling Hills Christian Church,El Dorado Hills, CA,2103,CHRISTIAN,38.656119,-121.074327
Abundant Life Christian Fellowship,Mountain View, CA,4500,COGA,37.389389,-122.08321
All Nations Church,Lakeview Terrace, CA,2000,UNK,40.80978,-81.418727
Healing Word,Tustin, CA,3500,NONDENOM,33.745851,-117.826166
Morningstar Christian Chapel,Whittier, CA,3000,NONDENOM,33.970878,-118.03084
Glide Memorial United Methodist Church,San Francisco, CA,3000,UMC,39.465862,-6.366583
Calvary Community Church,Westlake Village, CA,3200,CAL,34.146023,-118.806179
Calvary Bible Fellowship,Temecula, CA,2500,NONDENOM,33.494635,-117.147366
Hope Point,Yuba City, CA,2270,NAZ,39.140448,-121.616911
Journey Community Church,La Mesa, CA,2300,NONDENOM,32.767829,-117.023084
Venture Christian Church,Los Gatos, CA,3600,NONDENOM,37.226611,-121.97468
Oriental Mission Church,Los Angeles, CA,3800,CHRISTIAN,34.053691,-118.242766
Menlo Park Presbyterian Church,Menlo Park, CA,3737,ECO,37.451967,-122.177993
Parkcrest Christian Church,Long Beach, CA,2500,NONDENOM,33.769016,-118.191604
Torrance First Presbyterian Church,Torrance, CA,2800,PRES,33.835849,-118.340629
The Crossing,Costa Mesa, CA,2000,NONDENOM,33.663339,-117.903317
Lifeway Church Ministries,Rancho Cucamonga, CA,2000,UNK,34.103319,-117.575174
Twin Cities Community Church,Grass Valley, CA,2100,SBC,39.219061,-121.06292
Hillside Community Church,Alta Loma, CA,2000,ABC,34.122887,-117.598578
Bethel Church,Irvine, CA,4300,SBC,33.685697,-117.825982
Warehouse Ministry,Sacramento, CA,4000,NONDENOM,38.581061,-121.493895
Cornerstone Fellowship,Livermore, CA,5000,NONDENOM,37.682058,-121.768053
Calvary Chapel Montebello,Montebello, CA,2500,CAL,34.01594,-118.111975
Inland Hills Church,Chino, CA,3001,AG,34.013356,-117.690075
Flood Church,San Diego, CA,2200,UNK,32.71742,-117.162773
New Hope Missionary Baptist Church,San Bernardino, CA,3400,BGC,34.108345,-117.289765
Grace Baptist Church,Santa Clarita, CA,2300,BGC,34.451964,-118.515489
Ministerios Llamada Final,Downey, CA,3500,NONDENOM,33.942215,-118.123565
Desert Vineyard Christian Fellowship,Lancaster, CA,5000,VINE,34.698106,-118.136615
Peoples Church,Fresno, CA,4500,NONDENOM,36.739442,-119.784831
Faith Community Church,West Covina, CA,10000,UNK,34.068621,-117.938953
Bayview Baptist Church,San Diego, CA,1800,BAPT,32.71742,-117.162773
Santa Cruz Bible Church,Santa Cruz, CA,2000,NONDENOM,36.974363,-122.029467
Rolling Hills Covenant Church,Rolling Hills Estates, CA,3000,EC,33.787794,-118.358128
Calvary Chapel of Oceanside,Oceanside, CA,2500,CAL,33.19587,-117.379483
Grace Brethren Church,Long Beach, CA,2000,BRETHREN,33.769016,-118.191604
Capital Christian Center,Sacramento, CA,4150,AG,38.581061,-121.493895
First Covenant Church,Sacramento, CA,2000,UNK,38.581061,-121.493895
Campus Hill Church,Loma Linda, CA,2000,SDA,34.053797,-117.261093
Calvary Temple,Concord, CA,2150,AG,37.976853,-122.033562
Big Valley Grace Community Church,Modesto, CA,3800,NONDENOM,37.639097,-120.996878
Journey of Faith,Manhattan Beach, CA,2000,CBA,33.891599,-118.395124
First Baptist Church of Elk Grove,Elk Grove, CA,3300,ABC,38.408799,-121.371618
Skyline Wesleyan Church,La Mesa, CA,2500,WES,32.767829,-117.023084
First Chinese Baptist Church,Los Angeles, CA,2200,BAPT,34.053691,-118.242766
La Iglesia en el Camino,Van Nuys, CA,5000,4SQ,34.186619,-118.448668
Calvary Chapel Rancho Santa Margarita,Rancho Santa Margarita, CA,2000,CAL,33.640885,-117.602934
Saint Andrew's Presbyterian Church,Newport Beach, CA,1833,PCUSA,33.617009,-117.92944
Christian Assembly Foursquare Church,Eagle Rock, CA,2600,4SQ,34.136688,-118.20768
Pomona First Baptist Church,Pomona, CA,4000,ABC,34.055381,-117.75175
North Valley Baptist Church,Santa Clara, CA,3000,NONDENOM,39.471529,-6.372104
Christian Worship Center,Manteca, CA,2000,AG,37.798618,-121.211715
Shepherd of the Hills Church,Porter Ranch, CA,8675,CHRISTIAN,34.281816,-118.561271
Revival Center Modesto,Modesto, CA,3000,NONDENOM,37.639097,-120.996878
EastLake Church,Chula Vista, CA,6280,NONDENOM,32.640054,-117.084196
North Coast Calvary Chapel,Carlsbad, CA,6000,CAL,33.158093,-117.350597
Horizon Christian Fellowship North County,Rancho Santa Fe, CA,4000,NONDENOM,33.020321,-117.202813
Calvary Chapel La Habra,La Habra, CA,2100,CAL,33.931607,-117.945487
Bay Area Christian Church,Palo Alto, CA,3500,NONDENOM,37.444329,-122.159847
Grace Korean Church,Fullerton, CA,4000,UNK,44.756165,-93.63574
Cornerstone Community Church,Simi Valley, CA,5000,NONDENOM,34.26774,-118.753807
Bethel Church,Redding, CA,3500,UNK,40.586356,-122.391675
The Grove Community Church,Riverside, CA,4500,NONDENOM,51.4791289,-3.1921926
Trinity Evangelical Free Church,Redlands, CA,2800,EF,34.055033,-117.182745
Cathedral of Faith,San Jose, CA,7800,NONDENOM,37.336191,-121.890583
Cross Word Christian Church,Riverside, CA,2000,NONDENOM,51.4791289,-3.1921926
Loma Linda University Church,Loma Linda, CA,3800,SDA,34.053797,-117.261093
Calvary Chapel,Downey, CA,9000,CAL,33.942215,-118.123565
Iglesia Cristiana Rios De Agua Viva,Pomona, CA,2500,PENT,34.055381,-117.75175
West Angeles Church of God in Christ,Los Angeles, CA,13000,COGIC,34.053691,-118.242766
Acts Full Gospel Church of God In Christ,Oakland, CA,6000,COGIC,37.804456,-122.271356
Bonita Valley Community Church,Bonita, CA,2100,AG,32.657832,-117.030027
Immanuel Baptist Church,Highland, CA,3000,BAPT,34.11213,-117.180797
New Venture Christian Fellowship,Oceanside, CA,2001,UNK,33.19587,-117.379483
Arcade Baptist Church,Sacramento, CA,2000,CBA,38.581061,-121.493895
Calvary Chapel of Costa Mesa,Santa Ana, CA,9500,CAL,33.749495,-117.873221
Mission Eben Ezer Family Church,Carson, CA,2750,AG,33.832204,-118.251755
Crossroads Community Church,Vallejo, CA,2100,4SQ,38.104086,-122.256637
The Church on the Way,Van Nuys, CA,9032,4SQ,34.186619,-118.448668
New Birth Church,Pittsburg, CA,2000,UNK,38.018175,-121.890123
Valley Bible Fellowship,Bakersfield, CA,10300,UNK,35.373871,-119.019464
Coast Hills Community Church,Aliso Viejo, CA,4000,NONDENOM,33.576138,-117.725812
Visalia First Assembly of God,Visalia, CA,3247,AG,36.330228,-119.292059
Neighborhood Church of Redding,Redding, CA,2500,CMA,40.586356,-122.391675
Crossroads Christian Church,Corona, CA,8375,CHRISTIAN,-25.460371,-55.990196
Victorville First Assembly,Victorville, CA,1907,AG,34.536107,-117.291157
Knott Avenue Christian Church,Anaheim, CA,2208,CHRISTIAN,33.834752,-117.911732
Faithful Central Bible Church,Inglewood, CA,8000,UNK,33.9562,-118.353132
Cornerstone Church,Fresno, CA,3000,AG,36.739442,-119.784831
Bethel Church of San Jose,San Jose, CA,2200,AG,37.336191,-121.890583
Lancaster Baptist Church,Lancaster, CA,6000,BAPT,34.698106,-118.136615
Sonrise Community Baptist Church,Santee, CA,2800,BAPT,32.838383,-116.973917
Iglesia De Restauracion Inc.,Los Angeles, CA,4000,EVAN,34.053691,-118.242766
Covina Assembly of God,Covina, CA,2000,AG,34.087793,-117.889116
High Desert Church,Victorville, CA,6313,NONDENOM,34.536107,-117.291157
New Life Church,Alamo, CA,2150,AG,37.850203,-122.032184
Calvary Chapel Golden Springs,Diamond Bar, CA,12000,CAL,34.028623,-117.810337
Southwest Community Church,Indian Wells, CA,4500,EF,33.721797,-116.338303
Shoreline Community Church,Monterey, CA,3500,NONDENOM,36.600256,-121.894639
First Church of the Nazarene,Pasadena, CA,2184,NAZ,39.459118,-6.379508
Calvary Church of Santa Ana,Santa Ana, CA,3100,NONDENOM,33.749495,-117.873221
Iglesia Ni Cristo,Los Angeles, CA,2000,COC,34.053691,-118.242766
New Life Community Church,Pismo Beach, CA,2367,NAZ,35.142753,-120.641283
Foothills Christian Fellowship,El Cajon, CA,2500,NONDENOM,32.794773,-116.962527
Lakeside Church,Folsom, CA,3000,UNK,38.677959,-121.176058
Cottonwood Christian Center,Los Alamitos, CA,7000,NONDENOM,33.803887,-118.077243
Water of Life Community Church,Fontana, CA,6371,NONDENOM,34.092234,-117.435048
Twin Lakes Baptist Church,Aptos, CA,3500,SBC,36.978773,-121.897634
Real Life Church,Valencia, CA,5105,NONDENOM,10.1667,-67.9833
Life Church,Irving, CA,2100,NONDENOM,44.83645,-68.741651
Yorba Linda Friends Church,Yorba Linda, CA,5000,QUAKER,33.89011,-117.824971
The Well Community Church,Fresno, CA,3800,NONDENOM,36.739442,-119.784831
Mount Calvary Baptist Church,Fairfield, CA,3800,SBC,38.249358,-122.039966
First African Methodist Episcopal Church,Los Angeles, CA,10000,AME,34.053691,-118.242766
Calvary Temple Worship Center,Modesto, CA,11778,AG,37.639097,-120.996878
Central Christian Church,Lancaster, CA,2200,NONDENOM,34.698106,-118.136615
New Covenant Community Church,Fresno, CA,1900,BGC,36.739442,-119.784831
Sunrise Church,Rialto, CA,5000,CBA,34.1064,-117.370324
Bayside of South Sacramento,Sacramento, CA,2500,EC,38.581061,-121.493895
Harvest Christian Fellowship,Riverside, CA,12300,NONDENOM,51.4791289,-3.1921926
Sandals Church,Riverside, CA,3000,NONDENOM,51.4791289,-3.1921926
Northside Christian Church,Clovis, CA,2600,CHRISTIAN,36.825228,-119.702919
First Evangelical Free Church of Fullerton,Fullerton, CA,4500,EF,44.756165,-93.63574
South Hills Church,Corona, CA,2500,NONDENOM,-25.460371,-55.990196
Church of the Harvest,Los Angeles, CA,2000,EVAN,34.053691,-118.242766
The Packinghouse Church,Redlands, CA,3800,NONDENOM,34.055033,-117.182745
Calvary Christian Center,Sacramento, CA,5500,NONDENOM,38.581061,-121.493895
CompassChurch,Salinas, CA,2400,ECO,36.674412,-121.655037
Emmanuel Faith Community Church,Escondido, CA,6500,NONDENOM,33.121675,-117.081485
Jubilee Christian Center,San Jose, CA,14000,UNK,37.336191,-121.890583
The Rock Church,San Diego, CA,12864,NONDENOM,32.71742,-117.162773
The Dream Center / Angelus Temple,Los Angeles, CA,8975,4SQ,34.053691,-118.242766
Orange Hills Assembly of God,Orange Hills, CA,2000,AG,45.3653,-65.5345
River of Life Christian Church,Santa Clara, CA,2950,NONDENOM,39.471529,-6.372104
Calvary Chapel Modesto,Modesto, CA,4000,CAL,37.639097,-120.996878
Lake Avenue Church,Pasadena, CA,5000,UNK,39.459118,-6.379508
Horizon Christian Fellowship,San Diego, CA,7000,NONDENOM,32.71742,-117.162773
The Church at Rocky Peak,Chatsworth, CA,2000,NONDENOM,34.259572,-118.602325
New Vision Church,Milpitas, CA,2300,SBC,37.428272,-121.906624
Greater Saint Paul Baptist Church,Oakland, CA,5300,NBC,37.804456,-122.271356
New Harvest Christian Fellowship,Norwalk, CA,2000,UNK,33.90928,-118.084917
Valley Baptist Church,Bakersfield, CA,3266,SBC,35.373871,-119.019464
Calvary Chapel Chino Valley,Chino, CA,8300,CAL,34.013356,-117.690075
Desert Chapel,Palm Springs, CA,3500,NONDENOM,33.824627,-116.540303
Adventure Christian Church,Roseville, CA,3659,CHRISTIAN,38.752124,-121.288006
City of Refuge Church,Gardena, CA,10000,UNK,33.896359,-118.305304
RockHarbor Church,Costa Mesa, CA,5000,NONDENOM,33.663339,-117.903317
Calvary Chapel Westgrove,Garden Grove, CA,1800,CAL,33.774629,-117.946372
Bethany Slavic Missionary Church,Sacramento, CA,5700,NONDENOM,38.581061,-121.493895
Capo Beach Calvary,Capistrano Beach, CA,2200,NONDENOM,33.455148,-117.66808
Brookins Community AME Church,Los Angeles, CA,2000,AME,34.053691,-118.242766
Revival Christian Fellowship,Menifee, CA,6000,NONDENOM,33.686443,-117.177044
Christ's Church of the Valley,San Dimas, CA,4825,CHRISTIAN,34.106676,-117.806726
Grace Community Church,Sun Valley, CA,8000,NONDENOM,34.217504,-118.370358
Shadow Mountain Community Church,El Cajon, CA,7513,SBC,32.794773,-116.962527
Victory Outreach Church San Diego,San Diego, CA,1800,UNK,32.71742,-117.162773
Saint John's Lutheran Church,Orange, CA,2000,LUTH,33.787257,-117.850309
First Christian Church,Huntington Beach, CA,2860,CHRISTIAN,33.678334,-118.000017
Cornerstone Community Church,Wildomar, CA,3200,NONDENOM,33.593937,-117.241499
Riverlakes Community Church,Bakersfield, CA,2000,UNK,35.373871,-119.019464
Northwest Church,Fresno, CA,1800,BGC,36.739442,-119.784831
Thanksgiving Church,Buena Park, CA,1900,AG,33.870413,-117.996217
North Coast Church,Vista, CA,8906,EF,33.200037,-117.242536
The Rock,Anaheim, CA,3000,4SQ,33.834752,-117.911732
Oasis Church,Valley Village, CA,2000,UNK,34.163715,-118.396576
Life Church of God In Christ,Riverside, CA,4500,COGIC,51.4791289,-3.1921926
Newbreak,San Diego, CA,2171,AG,32.71742,-117.162773
Destiny Church,Indio, CA,2593,NONDENOM,33.719281,-116.218805
Little Country Church,Redding, CA,3800,NONDENOM,40.586356,-122.391675
Atascadero Bible Church,Atascadero, CA,3000,NONDENOM,35.489417,-120.670726
Calvary Bible Church,Burbank, CA,2600,NONDENOM,34.181648,-118.325855
Bright Russian Baptist Church,West Sacramento, CA,2500,BAPT,38.580461,-121.530234
Crossroads Grace Community Church,Manteca, CA,1800,NONDENOM,37.798618,-121.211715
The Father's House,Vacaville, CA,3000,UNK,38.356577,-121.987744
New Life Center,Bakersfield, CA,2000,4SQ,35.373871,-119.019464
Maranatha Chapel,San Diego, CA,6000,NONDENOM,32.71742,-117.162773
The Bridge,Fresno, CA,2000,EF,36.739442,-119.784831
Calvary Chapel of Vista,Vista, CA,3000,CAL,33.200037,-117.242536
Jubilee Fellowship Church,Lone Tree, CO,2500,NONDENOM,39.5361,-104.896368
Crossroads Church of Denver,Wheat Ridge, CO,4500,UNK,39.766098,-105.077206
Colorado Community Church Aurora,Aurora, CO,2500,NONDENOM,39.740511,-104.830995
Foothills Bible Church,Littleton, CO,2000,NONDENOM,39.613321,-105.01665
Crossroads Church,Loveland, CO,2000,UNK,40.397761,-105.07498
Northern Hills Christian Church,Brighton, CO,2000,NONDENOM,39.978887,-104.817494
Canyon View Vineyard Church,Grand Junction, CO,4500,VINE,39.063956,-108.550732
First Presbyterian Church,Colorado Springs, CO,2495,PCUSA,38.833958,-104.825349
Potter's House Church of Denver,Denver, CO,7800,NONDENOM,39.739236,-104.984862
Southeast Christian Church,Parker, CO,3554,CHRISTIAN,39.518451,-104.761264
Timberline Church,Fort Collins, CO,6022,AG,40.550853,-105.066809
Mountain Springs Church,Colorado Springs, CO,3500,NONDENOM,38.833958,-104.825349
Faith Evangelical Free Church,Fort Collins, CO,2000,EF,40.550853,-105.066809
New Life Church,Colorado Springs, CO,12000,UNK,38.833958,-104.825349
Calvary Worship Center,Colorado Springs, CO,2000,NONDENOM,38.833958,-104.825349
Greenwood Community Church,Greenwood Village, CO,2200,EPC,39.61721,-104.950814
LifeBridge Christian Church,Longmont, CO,3121,CHRISTIAN,38.22913,-77.6071
Church For All Nations,Colorado Springs, CO,2000,UNK,38.833958,-104.825349
Christ Community Church,Greeley, CO,2000,EF,40.423314,-104.709132
Colorado Community Church Englewood,Englewood, CO,4500,NONDENOM,39.648206,-104.987964
Vineyard Church of the Rockies,Fort Collins, CO,2500,VINE,40.550853,-105.066809
Resurrection Fellowship,Loveland, CO,2500,NONDENOM,40.397761,-105.07498
Rocky Mountain Calvary Chapel,Colorado Springs, CO,3500,CAL,38.833958,-104.825349
Faith Bible Chapel,Arvada, CO,5000,NONDENOM,39.800551,-105.081157
Mission Hills Church,Littleton, CO,3600,BGC,39.613321,-105.01665
Cherry Hills Community Church,Highlands Ranch, CO,6250,EPC,39.549724,-104.969566
Eastern Hills Community Church,Centennial, CO,2000,CRC,39.579155,-104.876923
Rocky Mountain Christian Church,Niwot, CO,2202,CHRISTIAN,40.103874,-105.170819
Word of Life Christian Center,Lone Tree, CO,2000,NONDENOM,39.5361,-104.896368
Flatirons Community Church,Lafayette, CO,15495,EVAN,39.993596,-105.089706
Woodmen Valley Chapel,Colorado Springs, CO,5500,NONDENOM,38.833958,-104.825349
Red Rocks Church,Golden, CO,3200,AG,39.755543,-105.221099
First Cathedral,Bloomfield, CT,3500,BAPT,41.826488,-72.730095
Valley Community Baptist Church,Avon, CT,2000,BGC,41.809821,-72.830654
Faith Church,New Milford, CT,2000,NONDENOM,41.577099,-73.41058
New Beginnings Community Church,Darien, CT,2000,NONDENOM,41.078708,-73.469287
Black Rock Congregational Church,Fairfield, CT,2000,NONDENOM,41.141208,-73.263726
Kingdom Life Christian Church,Milford, CT,2500,NONDENOM,41.222222,-73.05706
Crossroads Community Cathedral,E. Hartford, CT,2000,AG,41.782322,-72.612035
Walnut Hill Community Church,Bethel, CT,2500,EVAN,41.371206,-73.41401
Saint Columba's Episcopal Church,Washington, DC,1800,EPIS,38.895037,-77.036543
Rhema Christian Center Church,Washington, DC,2000,NONDENOM,38.895037,-77.036543
International Ethiopian Evangelical Church,Washington, DC,1800,AG,38.895037,-77.036543
Temple of Praise,Washington, DC,4000,NONDENOM,38.895037,-77.036543
Shiloh Baptist Church,Washington, DC,2000,BAPT,38.895037,-77.036543
Greater Mt. Calvary Holy Church,Washington, DC,3500,PENT,38.895037,-77.036543
Bible Way Temple,Washington, DC,3500,UNK,38.895037,-77.036543
Northstar Church,Panama City, FL,2000,NONDENOM,30.160083,-85.654573
Sweet Home Missionary Baptist,Miami, FL,2000,MISSBAPT,25.764993375,-80.1852740625
First Baptist Church,Panama City, FL,2000,SBC,30.160083,-85.654573
McGregor Baptist Church,Fort Myers, FL,3453,SBC,26.640628,-81.872308
Church in the Son,Orlando, FL,2200,NONDENOM,28.542111,-81.37903
Faith Assembly of God,Orlando, FL,4000,AG,28.542111,-81.37903
Church of Hope,Sarasota, FL,2237,AG,27.336581,-82.530855
Christ's Church,Jacksonville, FL,4904,CHRISTIAN,30.332184,-81.655651
Christian Life Center,Fort Lauderdale, FL,3500,AG,26.122308,-80.143379
Olive Baptist Church,Pensacola, FL,3137,SBC,30.421309,-87.216915
New Life Christian Fellowship,Jacksonville, FL,2000,NONDENOM,30.332184,-81.655651
Christ Church United Methodist Church,Fort Lauderdale, FL,1800,UMC,26.122308,-80.143379
Calvary Chapel of Melbourne,West Melbourne, FL,10000,CAL,28.042227,-80.664094
Without Walls International Church,Tampa, FL,3000,UNK,27.94776,-82.458444
Countryside Christian Center,Clearwater, FL,2000,NONDENOM,27.965853,-82.800103
Summit Church,Orlando, FL,4300,NONDENOM,28.542111,-81.37903
Campus Church,Pensacola, FL,7000,CHRISTIAN,30.421309,-87.216915
Grace Fellowship,West Palm Beach, FL,4000,UNK,26.715364,-80.053294
First Baptist Church,Plant City, FL,3000,SBC,28.01633,-82.12348
Mount Olive Baptist Church,Fort Lauderdale, FL,3000,BAPT,26.122308,-80.143379
Ministerio Internacional El Rey Jesus,Miami, FL,5500,NONDENOM,25.764993375,-80.1852740625
Generations Christian Church,Trinity, FL,2252,CHRISTIAN,28.180164,-82.654212
Grace Family Church,Lutz, FL,6187,UNK,28.151124,-82.461483
Family Worship Center,Lakeland, FL,2600,PENT,28.039465,-81.949804
Calvary Chapel Fort Lauderdale,Fort Lauderdale, FL,18521,CAL,26.122308,-80.143379
Anastasia Baptist Church,Saint Augustine, FL,1510,SBC,29.894695,-81.31454
Bethel Missionary Baptist Church,Tallahassee, FL,6000,MISSBAPT,30.438083,-84.280933
Potential Church,Cooper City, FL,12103,SBC,26.057783,-80.269511
City of Life Church,Kissimmee, FL,2000,NONDENOM,28.2919,-81.407584
Christ Fellowship,Palm Beach Gardens, FL,18965,NONDENOM,26.823395,-80.138655
The Family Church,Gainesville, FL,2000,NONDENOM,29.651968,-82.324985
The Faith Center Ministries,Sunrise, FL,8000,NONDENOM,26.166689,-80.278757
Winners Church,West Palm Beach, FL,2000,IPHC,26.715364,-80.053294
Woodland - The Community Church,Bradenton, FL,2001,UNK,27.498928,-82.574819
Calvary Chapel of Saint Petersburg,Pinellas Park, FL,3500,CAL,27.842803,-82.699544
Primeira Igreja Batista Brasileira,Pompano Beach, FL,2000,BAPT,26.23786,-80.124767
Mount Bethel Baptist Church,Fort Lauderdale, FL,2000,BAPT,26.122308,-80.143379
New Covenant Baptist Church,Orlando, FL,2200,BAPT,28.542111,-81.37903
First Baptist Church of Indian Rocks,Largo, FL,2908,SBC,27.909467,-82.787324
First Baptist Church,Jacksonville, FL,4300,SBC,30.332184,-81.655651
Christ Life Center,Miami, FL,4000,RCA,25.764993375,-80.1852740625
Village View Community Church,Summerfield, FL,2500,COG,29.008592,-82.034809
Christian Heritage Church,Tallahassee, FL,3000,NONDENOM,30.438083,-84.280933
First Baptist Church,Daytona Beach, FL,1900,SBC,29.210815,-81.022833
Faith Christian Center,Jacksonville, FL,2200,UNK,30.332184,-81.655651
Grace Church,Cape Coral, FL,2750,UMC,26.605943,-81.980677
Miami Vineyard Community Church,Miami, FL,2000,VINE,25.764993375,-80.1852740625
South Florida Church of Christ,Davie, FL,2000,COC,26.062867,-80.233104
Spanish River Church,Boca Raton, FL,2000,NONDENOM,26.358689,-80.083098
New Destiny Christian Center,Apopka, FL,2000,UNK,28.677968,-81.511521
Trinity Church,Miami, FL,3500,AG,25.764993375,-80.1852740625
Saint Lukes United Methodist Church,Orlando, FL,1967,UMC,28.542111,-81.37903
Abundant Living Ministries of Pembroke Pines,Pembroke Pines, FL,2000,IPHC,26.003147,-80.223937
Community Christian Church,Tamarac, FL,1971,CHRISTIAN,26.212861,-80.249771
Victory Church,Lakeland, FL,3001,AG,28.039465,-81.949804
Calvary Christian Center,Ormond Beach, FL,7120,NONDENOM,29.285413,-81.055792
Alpha and Omega Church,Miami, FL,2100,NONDENOM,25.764993375,-80.1852740625
Trinity Baptist Church,Jacksonville, FL,1800,BAPT,30.332184,-81.655651
Summit Church,Estero, FL,1800,UNK,26.438147,-81.806754
Oasis Church,Pembroke Pines, FL,2200,SBC,26.003147,-80.223937
Shiloh Metropolitan Baptist Church,Jacksonville, FL,6000,BAPT,30.332184,-81.655651
The Pentecostals of Cooper City,Cooper City, FL,2000,NONDENOM,26.057783,-80.269511
LifePoint Community Church,Tampa, FL,2200,SBC,27.94776,-82.458444
First United Methodist Church,Niceville, FL,2030,UMC,30.516864,-86.482172
Church of All Nations,Boca Raton, FL,2640,AG,26.358689,-80.083098
The Church Group Worldwide,Jacksonville, FL,3400,NONDENOM,30.332184,-81.655651
La Catedral del Pueblo,Miami, FL,2000,NONDENOM,25.764993375,-80.1852740625
Christ the Rock Community Church,Copper City, FL,2000,NONDENOM,26.057783,-80.269511
Christ Episcopal Church,Ponte Vedra Beach, FL,2000,EPIS,30.227465,-81.380082
The Crossing Church,Tampa, FL,5000,UNK,27.94776,-82.458444
First Baptist Church of Central Florida,Orlando, FL,4000,SBC,28.542111,-81.37903
Faithworld,Orlando, FL,5000,NONDENOM,28.542111,-81.37903
Saint Marks Episcopal Church,Jacksonville, FL,2500,EPIS,30.332184,-81.655651
Van Dyke United Methodist Church,Lutz, FL,2143,UMC,28.151124,-82.461483
Church by the Glades,Coral Springs, FL,6457,SBC,26.271192,-80.270604
First Baptist Church,Brandon, FL,2750,SBC,27.937801,-82.285925
Bay Life Church,Brandon, FL,2500,SBC,27.937801,-82.285925
Bell Shoals Baptist Church,Brandon, FL,2985,SBC,27.937801,-82.285925
First Baptist Church of Orlando,Orlando, FL,5587,SBC,28.542111,-81.37903
Celebration Church,Jacksonville, FL,11096,UNK,30.332184,-81.655651
Bethel Baptist Institutional Church,Jacksonville, FL,12000,BAPT,30.332184,-81.655651
Bayside Community Church,Bradenton, FL,2000,UNK,27.498928,-82.574819
Northland A Church Distributed,Longwood, FL,12000,NONDENOM,28.70085,-81.346558
Idlewild Baptist Church,Lutz, FL,7000,SBC,28.151124,-82.461483
Christ Journey Church,Coral Gables, FL,2100,BGC,25.72149,-80.268384
First Baptist Church of Mandarin,Jacksonville, FL,2000,SBC,30.332184,-81.655651
Westside Baptist Church,Gainesville, FL,1800,SBC,29.651968,-82.324985
Antioch Missionary Baptist Church,Miami Gardens, FL,7000,MISSBAPT,25.946705,-80.149024
New Birth Baptist Church,Miami, FL,9000,BAPT,25.764993375,-80.1852740625
Victorious Life Church,Wesley Chapel, FL,3000,AG,28.23973,-82.327866
First Presbyterian Church of Orlando,Orlando, FL,2400,PCUSA,28.542111,-81.37903
Gulf Breeze United Methodist Church,Gulf Breeze, FL,2324,UMC,30.381469,-87.100502
Christ Fellowship,Palmetto Bay, FL,8098,SBC,25.621772,-80.324775
King Jesus International Ministry,Miami, FL,12540,NONDENOM,25.764993375,-80.1852740625
First Baptist Church of Melbourne,Melbourne, FL,2500,SBC,28.106471,-80.637151
Tomoka Christian Church,Ormond Beach, FL,2296,CHRISTIAN,29.285413,-81.055792
East Brent Baptist Church,Pensacola, FL,2500,SBC,30.421309,-87.216915
Revealing Truth Ministries,Tampa, FL,2500,NONDENOM,27.94776,-82.458444
Cristo Mi Redentor,West Palm Beach, FL,3000,PENT,26.715364,-80.053294
Coral Ridge Presbyterian Church,Fort Lauderdale, FL,1900,PCA,26.122308,-80.143379
Community Christian Church,Ft. Lauderdale, FL,1971,CHRISTIAN,26.122308,-80.143379
Life Center Church,Eatonville, FL,2500,UNK,28.618673,-81.386095
First Baptist Church at the Mall,Lakeland, FL,3200,SBC,28.039465,-81.949804
Meadowbrook Church,Ocala, FL,3001,NONDENOM,29.187199,-82.140092
Real Life Christian Church,Clermont, FL,3245,CHRISTIAN,28.549445,-81.772854
First Baptist Church,Naples, FL,3523,SBC,26.142198,-81.794294
Church at the Springs,Ocala, FL,3000,SBC,29.187199,-82.140092
Calvary Chapel Kendall,Miami, FL,2200,CAL,25.764993375,-80.1852740625
First Assembly of God,Fort Myers, FL,7426,AG,26.640628,-81.872308
First Baptist Church,Fort Lauderdale, FL,2200,SBC,26.122308,-80.143379
Discovery Church,Orlando, FL,4500,NONDENOM,28.542111,-81.37903
Iglesia El Calvario Assembly of God,Orlando, FL,5250,AG,28.542111,-81.37903
Trinity Church International,Lake Worth, FL,4012,AG,26.596347,-80.181643
Potter's House Christian Fellowship,Jacksonville, FL,3000,UNK,30.332184,-81.655651
New Dimensions Christian Center,Pensacola, FL,3300,NONDENOM,30.421309,-87.216915
Beach United Methodist Church,Jacksonville Beach, FL,2069,UMC,30.294686,-81.39314
First Baptist Church of Oviedo,Oviedo, FL,2461,SBC,28.670253,-81.208494
Iglesia Cristiana Segadores De Vida,Hollywood, FL,7000,NONDENOM,26.011201,-80.14949
South Biscayne Baptist Church,North Port, FL,2000,SBC,27.044224,-82.235925
Calvary Baptist Church,Clearwater, FL,2419,SBC,27.965853,-82.800103
Peachtree Presbyterian Church,Atlanta, GA,3171,PCUSA,33.748992,-84.390264
Salem Bible Church,Atlanta, GA,2000,UNK,33.748992,-84.390264
Perimeter Church,Duluth, GA,3900,PCA,34.002857,-84.144105
Crossroads Baptist Church,Newnan, GA,2607,SBC,33.380672,-84.799657
Fairfield Baptist Church,Lithonia, GA,2000,BAPT,33.712331,-84.105194
Calvary Chapel Stone Mountain,Lilburn, GA,2000,CAL,33.890104,-84.142972
Johnson Ferry Baptist Church,Marietta, GA,5000,SBC,33.952847,-84.549615
Overcoming by Faith,Savannah, GA,2000,4SQ,32.080926,-81.091177
Greater Piney Grove Baptist Church,Atlanta, GA,4000,BAPT,33.748992,-84.390264
Peace Baptist Church,Decatur, GA,1800,BAPT,33.773758,-84.296069
Savannah Christian Church,Savannah, GA,7331,CHRISTIAN,32.080926,-81.091177
Roswell United Methodist Church,Roswell, GA,2100,UMC,34.02332,-84.360022
First Baptist Church,Atlanta, GA,4931,SBC,33.748992,-84.390264
Oakwood Baptist Church,Chickamauga, GA,2415,SBC,34.87115,-85.290247
Church of the Apostles,Atlanta, GA,2500,ANGLICAN,33.748992,-84.390264
Turner Chapel Ame Church,Marietta, GA,4400,AME,33.952847,-84.549615
Greenforest Community Baptist Church,Decatur, GA,2300,SBC,33.773758,-84.296069
Athens Church,Athens, GA,2000,UNK,33.959768,-83.376398
Antioch Baptist Church North,Atlanta, GA,4000,NBC,33.748992,-84.390264
Wildwood Baptist Church,Acworth, GA,2500,BGC,34.065933,-84.67688
Mountain Lake Church,Cumming, GA,2500,NONDENOM,34.20732,-84.140193
North Metro Church,Kennesaw, GA,3500,NONDENOM,34.023434,-84.61549
Hebron Baptist Church,Dacula, GA,4266,SBC,33.988717,-83.897957
Maranatha Adventist Church,Atlanta, GA,2100,SDA,33.748992,-84.390264
Burnt Hickory Baptist Church,Powder Springs, GA,2065,SBC,33.859549,-84.683824
New Hope Baptist Church,Fayetteville, GA,2200,SBC,33.448726,-84.454926
Greater Travelers Rest Baptist Church,Decatur, GA,3000,BAPT,33.773758,-84.296069
Destiny Metropolitan Worship Church,Atlanta, GA,3600,NONDENOM,33.748992,-84.390264
First Baptist Church Woodstock,Woodstock, GA,6115,SBC,34.101411,-84.519219
Cathedral At Chapel Hill,Decatur, GA,2000,NONDENOM,33.773758,-84.296069
First Baptist Church,Decatur, GA,2700,SBC,33.773758,-84.296069
The Rock Ministries Inc.,Flowery Branch, GA,2000,NONDENOM,34.185102,-83.925181
Salem Missionary Baptist Church,Lilburn, GA,1800,BAPT,33.890104,-84.142972
Community Bible Church,Stockbridge, GA,3200,NONDENOM,33.544278,-84.233809
Southside Baptist Church,Warner Robins, GA,2100,SBC,32.620097,-83.606568
Elizabeth Baptist Church,Atlanta, GA,6733,SBC,33.748992,-84.390264
Oasis Family Life Church,Dallas, GA,2500,UNK,33.923714,-84.840773
Beulah Missionary Baptist Church,Decatur, GA,5000,MISSBAPT,33.773758,-84.296069
Ingleside Baptist Church,Macon, GA,2000,BAPT,32.840695,-83.632402
Mount Paran Church of God,Atlanta, GA,4000,COG,33.748992,-84.390264
Harvest Church,Byron, GA,2109,UMC,32.637154,-83.723399
First Assembly of God,Griffin, GA,7780,AG,33.246781,-84.26409
New Birth South Metropolitan Church,Jonesboro, GA,10000,UNK,33.521501,-84.353813
Beulahland Bible Church,Macon, GA,3500,NONDENOM,32.840695,-83.632402
Fellowship Bible Church,Roswell, GA,3500,UNK,34.02332,-84.360022
World Changers Church International,College Park, GA,15000,NONDENOM,33.653443,-84.449373
Victory for the World,Stone Mountain, GA,2000,NONDENOM,33.808092,-84.170627
12Stone Church,Lawrenceville, GA,13563,WES,33.956215,-83.987963
Mount Paran Church of God North,Marietta, GA,2000,COG,33.952847,-84.549615
Total Grace Christian Center,Decatur, GA,3000,NONDENOM,33.773758,-84.296069
Saint Philip AME Church,Atlanta, GA,6000,AME,33.748992,-84.390264
Divine Faith Ministries International,Duluth, GA,3300,NONDENOM,34.002857,-84.144105
Saint Paul Christian Methodist Episcopal,Savannah, GA,2500,CME,32.080926,-81.091177
First Redeemer Church,Cumming, GA,3200,SBC,34.20732,-84.140193
Trinity Chapel Church of God,Powder Springs, GA,2100,COG,33.859549,-84.683824
Cascade Hills Church,Columbus, GA,4420,SBC,32.461071,-84.988045
New Mercies Christian Church,Lilburn, GA,7000,CHRISTIAN,33.890104,-84.142972
First Baptist Church Jonesboro,Jonesboro, GA,2000,SBC,33.521501,-84.353813
North Point Community Church,Alpharetta, GA,30629,NONDENOM,34.070958,-84.274733
West Ridge Church,Dallas, GA,4800,SBC,33.923714,-84.840773
Avalon Church,McDonough, GA,1300,SBC,33.447336,-84.146862
Blackshear Place Baptist Church,Flowery Branch, GA,2875,SBC,34.185102,-83.925181
Word of Faith Family Worship Cathedral,Austell, GA,8300,NONDENOM,33.812606,-84.634378
Ray of Hope Christian Church,Decatur, GA,2000,CHRISTIAN,33.773758,-84.296069
Free Chapel Worship Center,Gainesville, GA,13568,NONDENOM,34.297879,-83.824066
NorthStar Church,Kennesaw, GA,2000,SBC,34.023434,-84.61549
Springfield Baptist Church,Conyers, GA,2000,BAPT,33.66761,-84.01769
North Metro First Baptist Church,Lawrenceville, GA,2285,BAPT,33.956215,-83.987963
Mount Bethel United Methodist Church,Marietta, GA,2950,UMC,33.952847,-84.549615
The Church at Chapel Hill,Douglasville, GA,2000,AG,33.751497,-84.747714
Victory World Church,Norcross, GA,8000,NONDENOM,33.941213,-84.213531
Korean Community Presbyterian Church,Duluth, GA,3000,KPCA,34.002857,-84.144105
First Baptist Church Snellville,Snellville, GA,4000,SBC,33.857328,-84.019911
Passion City Church,Atlanta, GA,2000,NONDENOM,33.748992,-84.390264
Mount Pisgah United Methodist Church,Johns Creek, GA,2211,UMC,34.018156,-84.190196
Roswell Street Baptist Church,Marietta, GA,1850,SBC,33.952847,-84.549615
Mount Ephraim Baptist Church,Atlanta, GA,5500,BAPT,33.748992,-84.390264
West Acres Baptist,Evans, GA,2000,BAPT,33.5338,-82.130589
Hopewell Missionary Baptist,Norcross, GA,5000,BAPT,33.941213,-84.213531
Gospel Tabernacle East,Stone Mountain, GA,2000,NONDENOM,33.808092,-84.170627
Berean Christian Church,Stone Mountain, GA,7000,NONDENOM,33.808092,-84.170627
New Birth Missionary Baptist Church,Lithonia, GA,8000,MISSBAPT-NBC,33.712331,-84.105194
Grace Fellowship Church,Snellville, GA,4000,NONDENOM,33.857328,-84.019911
Eagle's Landing First Baptist Church,Mc Donough, GA,2170,SBC,33.447336,-84.146862
Cascade United Methodist Church,Atlanta, GA,1800,UMC,33.748992,-84.390264
Vineville Baptist Church,Macon, GA,2000,UNK,32.840695,-83.632402
Faith Christian Center,Smyrna, GA,2700,NONDENOM,33.883887,-84.514745
Warren Baptist Church,Augusta, GA,1800,BAPT,33.470971,-81.974843
Voices of Faith Ministries,Stone Mountain, GA,6900,SBC,33.808092,-84.170627
Atlanta Berean Church,Atlanta, GA,2500,SDA,33.748992,-84.390264
Rock Bridge Community Church,Dalton, GA,2900,SBC,34.769187,-84.970248
Hope Chapel Kapolei,Kapolei, HI,2500,4SQ,21.334008,-158.077849
New Hope Leeward,Waipahu, HI,4358,4SQ,21.386667,-158.009166
First Assembly of God,Honolulu, HI,2400,AG,21.304547,-157.855676
King's Cathedral Maui,Kahului, HI,5409,AG,20.88941,-156.472712
Word of Life Christian Center,Honolulu, HI,5000,UNK,21.304547,-157.855676
Hope Chapel,Kihei, HI,2000,4SQ,20.747626,-156.45499
Calvary Chapel of Honolulu,Aiea, HI,1800,CAL,21.382222,-157.933611
New Hope Christian Fellowship,Honolulu, HI,11000,4SQ,21.304547,-157.855676
Point of Grace Church,Waukee, IA,2200,NONDENOM,41.611849,-93.884513
Prairie Lakes Church,Cedar Falls, IA,2200,BAPT,42.527412,-92.445318
First Assembly Cedar Rapids,Cedar Rapids, IA,2100,AG,41.975887,-91.670405
Cornerstone Church,Ames, IA,2200,SBC,42.026757,-93.617045
Harvest Bible Chapel,Davenport, IA,2100,CHRISTIAN,41.523644,-90.577637
Third Reformed Church,Pella, IA,2000,RCA,41.408053,-92.916309
Orchard Hill Church,Cedar Falls, IA,2000,RCA,42.527412,-92.445318
Valley Church,West Des Moines, IA,2000,EF,41.564534,-93.759528
Faith Evangelical Free Church,Spirit Lake, IA,2500,EF,43.422184,-95.102217
Lutheran Church of Hope,West Des Moines, IA,10578,ELCA,41.564534,-93.759528
Eagle Christian Church,Eagle, ID,2364,CHRISTIAN,43.695442,-116.354014
Real Life Ministries,Post Falls, ID,7001,CHRISTIAN,47.711011,-116.948088
Capital Christian Center,Meridian, ID,3000,NONDENOM,43.60863,-116.392326
Calvary Chapel Boise,Boise, ID,6000,CAL,43.616616,-116.200886
Vineyard Boise,Boise, ID,2200,VINE,43.616616,-116.200886
Lake City Community Church,Coeur D Alene, ID,1925,AG,47.54112,-116.2343
New Faith Baptist Church International,Matteson, IL,4900,SBC,41.509832,-87.739267
Northwoods Community Church,Peoria, IL,3800,MEN,40.693861,-89.589101
Calvary Temple,Springfield, IL,2500,AG,39.799018,-89.643958
Christ Church of Oak Brook,Oak Brook, IL,2600,NONDENOM,41.832809,-87.92895
New Life Community Church,Chicago, IL,3900,UNK,41.875562,-87.624421
Lighthouse Church of All Nations,Alsip, IL,2000,UNK,41.668922,-87.738662
Eastview Christian Church,Normal, IL,4730,CHRISTIAN,40.509287,-88.98438
Willow Creek Community Church,South Barrington, IL,25743,NONDENOM,42.087726,-88.150813
Life Changers International Church,Hoffman Estates, IL,3000,NONDENOM,42.042726,-88.079278
The Chapel,Libertyville, IL,6010,NONDENOM,42.283079,-87.95313
Rockford First,Rockford, IL,3184,AG,42.271395,-89.093966
Village Church of Gurnee,Gurnee, IL,2000,UNK,42.3703,-87.902019
Central Christian Church,Mt Vernon, IL,1833,CHRISTIAN,38.317272,-88.90312
Victory Cathedral Worship Center,Bolingbrook, IL,4000,UNK,41.70033,-88.071771
Crossroads Community Church,Freeport, IL,2953,AG,42.296686,-89.621227
Heartland Community Church,Rockford, IL,7274,UNK,42.271395,-89.093966
Fellowship Missionary Baptist Church,Chicago, IL,3100,BAPT,41.875562,-87.624421
Highland Avenue Church of the Brethren,Elgin, IL,2500,BRETHREN,42.03726,-88.281099
Christ Church,Fairview Heights, IL,2100,UMC,38.588939,-89.990382
Salem Baptist Church of Chicago,Chicago, IL,9800,UNK,41.875562,-87.624421
Apostolic Faith Church,Chicago, IL,2000,PAW,41.875562,-87.624421
The Moody Church,Chicago, IL,2400,NONDENOM,41.875562,-87.624421
Abundant Faith Christian Center,Springfield, IL,2900,UNK,39.799018,-89.643958
Rock Church,Rockford, IL,5000,UNK,42.271395,-89.093966
Christ Community Church,Saint Charles, IL,4500,UNK,41.913981,-88.312818
Logos Baptist Assembly,Chicago, IL,2200,BAPT,41.875562,-87.624421
Evangelical Free Church of Bloomington,Bloomington, IL,2500,EF,40.479783,-88.993915
New Life Covenant Oakwood Church,Chicago, IL,3000,UNK,41.875562,-87.624421
Family Harvest Church,Tinley Park, IL,2500,NONDENOM,41.573367,-87.784494
College Church,Wheaton, IL,2000,NONDENOM,41.864696,-88.110171
Park Community Church,Chicago, IL,2500,NONDENOM,41.875562,-87.624421
The Orchard Evangelical Free Church,Arlington Heights, IL,2500,EF,42.081156,-87.980216
Rock of Ages Baptist Church,Maywood, IL,3000,BAPT,41.878994,-87.843641
Gracepointe Church,Naperville, IL,2000,NONDENOM,41.77287,-88.147928
Apostolic Church of God,Chicago, IL,10500,PAW,41.875562,-87.624421
Community Christian Church,Naperville, IL,5325,CHRISTIAN,41.77287,-88.147928
Harvest Bible Chapel,Naperville, IL,2500,NONDENOM,41.77287,-88.147928
All Nations Community Church,Homewood, IL,2000,NONDENOM,41.557328,-87.665474
Sweet Holy Spirit Full Gospel Baptist Church,Chicago, IL,4000,BAPT,41.875562,-87.624421
Iglesia De Dios Pentecostal,Chicago, IL,6000,PENT,41.875562,-87.624421
New Life Covenant Ministries,Chicago, IL,12994,AG,41.875562,-87.624421
Calvary Church,Naperville, IL,7070,AG,41.77287,-88.147928
West Side Christian Church,Springfield, IL,2175,CHRISTIAN,39.799018,-89.643958
The Crossing,Quincy, IL,5484,CHRISTIAN,39.935602,-91.409873
Wheaton Bible Church,West Chicago, IL,2500,NONDENOM,41.884751,-88.203961
The Vineyard Church,Urbana, IL,2800,VINE,40.111717,-88.207301
Living Word Christian Center,Forest Park, IL,4500,NONDENOM,41.879476,-87.81367
The Compass Church,Naperville, IL,2250,EF,41.77287,-88.147928
Harvest Bible Chapel,Rolling Meadows, IL,13916,CHRISTIAN,42.084194,-88.013128
Parkview Christian Church,Orland Park, IL,7093,CHRISTIAN,41.630663,-87.853629
Heritage Church,Rock Island, IL,2600,WES,41.509477,-90.578748
Trinity United Church of Christ,Chicago, IL,7500,UCC,41.875562,-87.624421
Chicago Church of Christ,Elmhurst, IL,2500,ICC,41.899475,-87.940342
Valley Kingdom Ministries International,South Holland, IL,3400,NONDENOM,41.600868,-87.606989
Christ Universal Temple,Chicago, IL,3200,NONDENOM,41.875562,-87.624421
Broadview Missionary Baptist Church,Broadview, IL,2500,BAPT,41.86392,-87.853393
Crossroads Community Church,Kokomo, IN,2700,UNK,40.486444,-86.133635
Memorial Baptist Church,Evansville, IN,2000,BAPT,37.974765,-87.555848
East 91st Street Christian Church,Indianapolis, IN,3832,CHRISTIAN,39.768333,-86.15835
Madison Park Church of God,Anderson, IN,2000,COG,40.10532,-85.680254
Saint Luke's United Methodist Church,Indianapolis, IN,3108,UMC,39.768333,-86.15835
Nappanee Missionary Church,Nappanee, IN,3000,UNK,41.442786,-86.00137
Bethel Temple Community Church,Evansville, IN,2000,NONDENOM,37.974765,-87.555848
Emmanuel Church of Greenwood,Greenwood, IN,2500,BAPT,39.613658,-86.106653
Northview Church,Carmel, IN,6595,NONDENOM,39.978802,-86.118926
Traders Point Christian Church,Whitestown, IN,4197,CHRISTIAN,39.997263,-86.34583
The Chapel,Fort Wayne, IN,2700,NONDENOM,41.07999,-85.138602
First Assembly,Fort Wayne, IN,1800,AG,41.07999,-85.138602
Calvary Tabernacle,Indianapolis, IN,3000,UPCI,39.768333,-86.15835
Northside Christian Church,New Albany, IN,5006,CHRISTIAN,38.285625,-85.824131
Mount Pleasant Christian Church,Greenwood, IN,3232,CHRISTIAN,39.613658,-86.106653
Warsaw Community Church,Warsaw, IN,3500,BRETHREN,41.238102,-85.853054
Faith Church,Dyer, IN,3500,RCA,41.494202,-87.521707
First Baptist Church,Hammond, IN,13426,BAPT,41.583366,-87.500043
Family Christian Center,Munster, IN,15540,NONDENOM,41.56448,-87.512541
Granger Community Church,Granger, IN,5169,UMC,41.753382,-86.110838
White River Christian Church,Noblesville, IN,2290,CHRISTIAN,40.045592,-86.008596
Blackhawk Baptist Church,Fort Wayne, IN,2000,BGC,41.07999,-85.138602
New Life Worship Center,Indianapolis, IN,2250,NONDENOM,39.768333,-86.15835
Kingsway Christian Church,Avon, IN,2549,CHRISTIAN,39.762823,-86.399717
Pathway Community Church,Fort Wayne, IN,3000,NONDENOM,41.07999,-85.138602
Plainfield Christian Church,Plainfield, IN,1956,CHRISTIAN,39.704212,-86.399439
Liberty Bible Church,Chesterton, IN,1800,EF,41.610594,-87.064199
Mount Olive Missionary Baptist Church,Indianapolis, IN,2500,MISSBAPT,39.768333,-86.15835
Connection Pointe Christian Church,Brownsburg, IN,3546,CHRISTIAN,39.843377,-86.397774
Fellowship Missionary Church,Fort Wayne, IN,2300,UNK,41.07999,-85.138602
Christian Fellowship Church,Evansville, IN,3200,NONDENOM,37.974765,-87.555848
Bethel Church,Crown Point, IN,2500,GBA,41.416981,-87.365314
New Beginnings Fellowship Church,Indianapolis, IN,3000,NONDENOM,39.768333,-86.15835
Sherwood Oaks Christian Church,Bloomington, IN,2588,CHRISTIAN,39.16704,-86.534288
College Park Church,Indianapolis, IN,3800,NONDENOM,39.768333,-86.15835
The Bridge Community Church,Decatur, IN,2000,NONDENOM,40.830603,-84.929133
Concordia Lutheran Church,Fort Wayne, IN,1800,LUTH,41.07999,-85.138602
Lakeview Christian Center,Indianapolis, IN,2000,AG,39.768333,-86.15835
Eastern Star Church,Indianapolis, IN,10000,NBC,39.768333,-86.15835
Grace Community Church,Noblesville, IN,5000,EF,40.045592,-86.008596
Indian Creek Christian Church,Indianapolis, IN,4532,CHRISTIAN,39.768333,-86.15835
Calvary Temple,Indianapolis, IN,2100,UPC,39.768333,-86.15835
Christ Gospel Church,Jeffersonville, IN,2500,NONDENOM,38.277023,-85.73716
Crossroads Christian Church,Evansville, IN,3550,CHRISTIAN,37.974765,-87.555848
Heartland Church,Indianapolis, IN,2000,NONDENOM,39.768333,-86.15835
Church of the Resurrection,Leawood, KS,10137,UMC,38.966673,-94.616901
College Church of the Nazarene,Olathe, KS,2174,NAZ,38.883886,-94.81887
Heartland Community Church,Olathe, KS,2000,EPC,38.883886,-94.81887
Westside Family Church,Lenexa, KS,5100,SBC,38.969746,-94.784584
Pathway Church,Wichita, KS,3012,CHRISTIAN,37.692236,-97.337545
Central Christian Church,Wichita, KS,3245,CHRISTIAN,37.692236,-97.337545
Lenexa Christian Center,Shawnee Mission, KS,3000,AG,39.041672,-94.720238
NewSpring Church,Wichita, KS,2000,UNK,37.692236,-97.337545
Central Community Church,Wichita, KS,2100,COGA,37.692236,-97.337545
Olathe Bible Church,Olathe, KS,2200,UNK,38.883886,-94.81887
Saint Stephen Church,Louisville, KY,10714,NONDENOM,38.254238,-85.759407
Crossroads Christian Church,Lexington, KY,2570,NONDENOM,38.046407,-84.497039
Highview Baptist Church,Louisville, KY,3254,SBC,38.254238,-85.759407
Owensboro Christian Church,Owensboro, KY,2052,CHRISTIAN,37.774215,-87.11333
Immanuel Baptist Church,Lexington, KY,2000,SBC,38.046407,-84.497039
Quest Community Church,Lexington, KY,3400,UNK,38.046407,-84.497039
Heartland Worship Center,Paducah, KY,1800,UNK,37.083389,-88.600048
Living Hope Baptist Church,Bowling Green, KY,2100,SBC,36.99032,-86.443602
Northeast Christian Church,Louisville, KY,2652,CHRISTIAN,38.254238,-85.759407
Southland Christian Church,Nicholasville, KY,12524,CHRISTIAN,37.880634,-84.572996
Sojourn Community Church,Louisville, KY,3476,UNK,38.254238,-85.759407
Evangel World Prayer Center,Louisville, KY,4800,AG,38.254238,-85.759407
First Church of Christ,Burlington, KY,2506,CHRISTIAN,39.02756,-84.724113
Valley View Church,Louisville, KY,2497,SBC,38.254238,-85.759407
Seven Hills Church,Florence, KY,3000,UNK,38.99895,-84.626611
Canaan Christian Church,Louisville, KY,2500,BAPT,38.254238,-85.759407
Southeast Christian Church,Louisville, KY,21764,CHRISTIAN,38.254238,-85.759407
Bates Memorial Baptist Church,Louisville, KY,3000,SBC,38.254238,-85.759407
Hillvue Heights Church,Bowling Green, KY,4825,SBC,36.99032,-86.443602
Saint Matthews Baptist Church,Louisville, KY,8300,SBC,38.254238,-85.759407
Victory Fellowship,Metairie, LA,2000,AG,29.989993,-90.150543
The Simple Church,Bossier City, LA,5000,NONDENOM,32.536936,-93.695269
Saint Timothy Northshore United Methodist,Mandeville, LA,1973,UMC,34.064135,-118.492575
Word of Life Center,Shreveport, LA,2500,NONDENOM,32.522183,-93.765194
First Baptist Lafayette,Lafayette, LA,4000,SBC,30.22409,-92.019843
Celebration Church,Metairie, LA,3260,SBC,29.989993,-90.150543
First Baptist West Monroe,West Monroe, LA,2402,SBC,32.518478,-92.147635
Our Saviors Church,Lafayette, LA,4600,NONDENOM,30.22409,-92.019843
Glad Tidings Assembly of God,Lake Charles, LA,2689,AG,30.226595,-93.217376
First Baptist Church,Bossier City, LA,2100,SBC,32.536936,-93.695269
Crossroads Church,Lafayette, LA,2400,AG,30.22409,-92.019843
Life Center Ministries,New Orleans, LA,6500,UNK,29.949932,-90.070116
Church of the King,Mandeville, LA,5000,UNK,34.064135,-118.492575
Healing Place Church,Baton Rouge, LA,7200,NONDENOM,30.44596,-91.18738
The Pentecostals,West Monroe, LA,2050,UPCI,32.518478,-92.147635
Broadmoor Baptist Church,Shreveport, LA,2300,SBC,32.522183,-93.765194
Living Faith Christian Center,Baton Rouge, LA,4750,NONDENOM,30.44596,-91.18738
Greater Saint Stephen Full Gospel Baptist,New Orleans, LA,10000,BAPT,29.949932,-90.070116
East Bayou Baptist Church,Lafayette, LA,2250,SBC,30.22409,-92.019843
The Vineyard Church,Kenner, LA,2000,VINE,29.994227,-90.241781
First Baptist Church,Covington, LA,1800,SBC,30.47547,-90.100911
Family Worship Center,Baton Rouge, LA,4000,UNK,30.44596,-91.18738
Bethany World Prayer Center,Baker, LA,8000,NONDENOM,64.3016045,-96.07721699999999
Franklin Avenue Baptist Church,New Orleans, LA,4000,SBC,29.949932,-90.070116
Pentecostals of Alexandria,Alexandria, LA,2800,UPCI,31.311248,-92.444909
Park Street Church,Boston, MA,2000,UNK,42.360253,-71.058291
Calvary Chapel of Boston,Rockland, MA,3700,CAL,42.130656,-70.916155
Church of the Larger Fellowship,Boston, MA,2500,UUA,42.360253,-71.058291
Liberty Churches,Shrewsbury, MA,2100,AG,42.283828,-71.717287
Grace Chapel,Lexington, MA,3000,NONDENOM,42.447318,-71.2245
Morning Star Baptist Church,Mattapan, MA,2100,BAPT,42.272321,-71.086995
Jubilee Christian Church,Mattapan, MA,7000,COGA,42.272321,-71.086995
Boston Church of Christ,Waltham, MA,2200,ICOC,42.37564,-71.2358
Springs Church,Winnipeg, MB,7500,UNK,49.895537,-97.138458
Church of the Rock,Winnipeg, MB,2500,NONDENOM,49.895537,-97.138458
Calvary Temple,Winnipeg, MB,2000,NONDENOM,49.895537,-97.138458
The Meeting Place,Winnipeg, MB,5000,MEN,49.895537,-97.138458
Southland Community Church,Steinbach, MB,3300,UNK,49.530557,-96.69342
Fourth Presbyterian Church,Bethesda, MD,1800,EPC,38.984827,-77.094646
Soul Factory,Forestville, MD,5000,NONDENOM,38.845113,-76.874972
Grace Fellowship Church,Timonium, MD,3000,NONDENOM,39.436844,-76.618704
Bethel African Methodist Episcopal Church,Baltimore, MD,2000,AME,39.290882,-76.610759
Sligo Seventh Day Adventist,Tacoma Park, MD,2000,SDA,38.977888,-77.007477
Ark of Safety Christian Church,Upper Marlboro, MD,2000,NONDENOM,38.81398,-76.757589
Mount Pleasant Church And Ministries,Baltimore, MD,8000,NONDENOM,39.290882,-76.610759
Bethel World Outreach Church,Silver Spring, MD,2000,UNK,38.995946,-77.027623
Southern Baptist Church,Baltimore, MD,2500,SBC,39.290882,-76.610759
Evangel Cathedral,Upper Marlboro, MD,4000,COG,38.81398,-76.757589
Covenant Life,Gathersburg, MD,3300,NONDENOM,39.139919,-77.192922
LifePoint Church,Reisterstown, MD,2000,UNK,39.469549,-76.829421
Zion Church,Largo, MD,3000,NONDENOM,38.88631,-76.83198
From the Heart Church Ministries,Temple Hills, MD,7000,NONDENOM,38.814002,-76.94553
Empowerment Temple,Baltimore, MD,7000,UNK,39.290882,-76.610759
Mount Ennon Baptist Church,Clinton, MD,5000,BAPT,38.765115,-76.898306
Cedar Ridge Community Church,Spencerville, MD,2000,UNK,39.114275,-76.97831
Woodstream Church,Mitchellville, MD,2000,BAPT,38.900621,-76.79522
New Shiloh Baptist Church,Baltimore, MD,2000,UNK,39.290882,-76.610759
Church of the Redeemer,Gaithersburg, MD,9407,NONDENOM,39.139919,-77.192922
Bridgeway Community Church,Columbia, MD,3500,NONDENOM,39.215621,-76.858205
Church of the Redeemed of the Lord,Baltimore, MD,2500,UNK,39.290882,-76.610759
The Sanctuary,Capitol Heights, MD,3400,NONDENOM,38.885396,-76.915944
Ebenezer African Methodist Episcopal,Fort Washington, MD,7000,AME,38.712531,-77.01246
Immanuel's Church,Silver Spring, MD,4500,NONDENOM,38.995946,-77.027623
Global Mission Church of Greater Washington,Silver Spring, MD,3000,SBC,38.995946,-77.027623
National Church of God,Fort Washington, MD,2500,COG,38.712531,-77.01246
First Baptist Church of Guilford,Colombia, MD,2000,SBC,6.166326,-75.42527799999999
New Psalmist Baptist Church,Baltimore, MD,6000,BAPT,39.290882,-76.610759
Greater Grace Church,Baltimore, MD,2000,NONDENOM,39.290882,-76.610759
Grace Community Church,Fulton, MD,2700,NONDENOM,39.150941,-76.923031
Mountain Christian Church,Joppa, MD,4270,CHRISTIAN,39.433719,-76.357737
Spirit of Faith Christian Center,Temple Hills, MD,5000,UNK,38.814002,-76.94553
Church of the Open Door,Westminster, MD,2700,BAPT,39.575264,-76.995928
First Baptist Church of Glenarden,Landover, MD,12000,BGC,38.934,-76.89664
Celebration Church,Columbia, MD,2500,COG,39.215621,-76.858205
First Mount Olive Freewill Baptist Church,Randallstown, MD,2500,BAPT,39.367684,-76.795455
NorthRidge Church,Plymouth, MI,9655,NONDENOM,45.006515,-93.46651
Mount Zion,Clarkston, MI,6000,NONDENOM,42.735863,-83.41883
Fair Haven Ministries,Hudsonville, MI,2000,RCA,42.870889,-85.865235
Word of Faith International Christian Center,Southfield, MI,11000,UNK,42.473369,-83.221873
Riverview Church,Holt, MI,2400,UNK,42.641481,-84.520172
Pioneer Memorial Church,Berrien Springs, MI,2500,SDA,41.946434,-86.338897
New Prospect Missionary Baptist Church,Detroit, MI,2000,NBC,42.331551,-83.04664
Grand Rapids First Assembly of God,Grand Rapids, MI,2400,AG,42.963241,-85.667864
Blythefield Hills Baptist Church,Rockford, MI,2020,BAPT,43.119721,-85.559604
Cornerstone United Methodist Church,Caledonia, MI,2000,UNK,42.789119,-85.516339
Grace Christian Church,Sterling Heights, MI,2000,CHRISTIAN,42.580312,-83.030203
Kensington Community Church,Troy, MI,11000,UNK,42.605589,-83.14993
Oak Pointe Church,Novi, MI,3000,NONDENOM,42.48059,-83.475491
Trinity Church,Lansing, MI,3500,UNK,42.733771,-84.555381
Christ Memorial Reformed Church,Holland, MI,2800,RCA,42.787602,-86.109083
Perfecting Church,Detroit, MI,4500,NONDENOM,42.331551,-83.04664
New Saint Paul Tabernacle Church,Detroit, MI,2300,COGIC,42.331551,-83.04664
Apostolic Church of Auburn Hills,Auburn Hills, MI,3000,UPCI,42.687532,-83.234103
Calvary Bible Church,Kalamazoo, MI,2000,NONDENOM,42.291707,-85.587229
Second Ebenezer Church,Detroit, MI,2000,UNK,42.331551,-83.04664
Central Wesleyan Church,Holland, MI,3000,WES,42.787602,-86.109083
Saint Lorenz Lutheran Church,Frankenmuth, MI,1800,LUTH,43.331787,-83.738054
Greater Grace Temple,Detroit, MI,8000,UNK,42.331551,-83.04664
Mars Hill Bible Church,Grandville, MI,12000,NONDENOM,42.909598,-85.763096
Detroit World Outreach Center,Redford, MI,2000,NONDENOM,42.394547,-83.295393
Faith Baptist Church of Waterford,Waterford, MI,5600,BAPT,42.670639,-83.389624
Resurrection Life Church,Grandville, MI,7000,NONDENOM,42.909598,-85.763096
Kentwood Community Church,Kentwood, MI,2581,WES,42.869473,-85.644749
Hartford Memorial Baptist Church,Detroit, MI,5000,BAPT,42.331551,-83.04664
First Wesleyan Church,Battle Creek, MI,2600,WES,42.319255,-85.182427
Ada Bible Church,Ada, MI,7636,NONDENOM,42.959373,-85.496158
Valley Family Church,Kalamazoo, MI,3000,NONDENOM,42.291707,-85.587229
Triumph Church,Detroit, MI,11600,NONDENOM,42.331551,-83.04664
Cornerstone Evangelical Presbyterian,Brighton, MI,1800,EPC,42.562222,-83.730556
Brightmoor Christian Church,Novi, MI,2000,AG,42.48059,-83.475491
Faith Lutheran Church,Troy, MI,2000,LUTH,42.605589,-83.14993
Ward Evangelical Presbyterian Church,Northville, MI,2300,EPC,42.415,-83.492222
Woodside Bible Church,Troy, MI,7174,UNK,42.605589,-83.14993
Calvary Church,Grand Rapids, MI,4500,NONDENOM,42.963241,-85.667864
Mount Hope Church,Lansing, MI,4300,AG,42.733771,-84.555381
Straight Gate International Church,Detroit, MI,2000,NONDENOM,42.331551,-83.04664
Calvary Lutheran Church,Golden Valley, MN,2300,LUTH,44.986118,-93.378462
Prince of Peace Lutheran Church,Burnsville, MN,3000,ELCA,44.767057,-93.277389
Calvary Baptist Church,Roseville, MN,1800,BGC,45.006077,-93.156611
Saint Andrew Lutheran Church,Eden Prairie, MN,2300,LUTH,44.854686,-93.470786
North Heights Lutheran Church,Arden Hills, MN,2200,LUTH,45.076141,-93.166695
Emmanuel Christian Center,Minneapolis, MN,3500,AG,44.9773,-93.265469
Shepherd of the Lake Lutheran Church,Prior Lake, MN,2000,ELCA,44.713327,-93.422687
Berean Baptist Church,Burnsville, MN,2100,BGC,44.767057,-93.277389
Evergreen Community Church,Bloomington, MN,2300,UNK,44.832241,-93.320487
Cedar Valley Church,Bloomington, MN,2000,AG,44.832241,-93.320487
Westwood Community Church,Excelsior, MN,3800,BGC,44.903296,-93.566346
Church of the Open Door,Maple Grove, MN,3500,CMA,45.098498,-93.441922
Woodbury Lutheran Church,Woodbury, MN,2100,LUTH,44.919896,-92.933945
Saint Philip the Deacon Lutheran Church,Plymouth, MN,2000,ELCA,45.006515,-93.46651
River Valley Church,Apple Valley, MN,5000,AG,44.731909,-93.21772
Wooddale Church,Eden Prairie, MN,5500,BGC,44.854686,-93.470786
Shepherd of the Valley Lutheran Church,Apple Valley, MN,2200,LUTH,44.731909,-93.21772
Crossroads Church,Woodbury, MN,2200,NONDENOM,44.919896,-92.933945
New Hope Church Evangelical Free Church,New Hope, MN,3757,EF,45.034718,-93.386104
Substance Church,Roseville, MN,3000,NONDENOM,45.006077,-93.156611
Living Word Christian Center,Brooklyn Park, MN,9000,UNK,45.100481,-93.344359
Mount Olivet Lutheran Church,Minneapolis, MN,5895,ELCA,44.9773,-93.265469
Eagle Brook Church,Centerville, MN,17091,BGC,45.163022,-93.055776
Bethlehem Baptist Church,Minneapolis, MN,4600,BGC,44.9773,-93.265469
Grace Church,Eden Prairie, MN,5500,NONDENOM,44.854686,-93.470786
North Heights Lutheran Church,Roseville, MN,2300,ELCA,45.006077,-93.156611
Saint Andrew's Lutheran Church,Mahtomedi, MN,2100,ELCA,45.069689,-92.951604
Woodland Hills Church,St. Paul, MN,5000,BGC,44.949749,-93.093103
Hosanna!,Lakeville, MN,6600,LUTH,44.650051,-93.243279
Twin Rivers Worship Center,Saint Louis, MO,2500,UNK,38.626426,-90.199585
Morning Star Church,O'Fallon, MO,1945,UMC,38.791037,-90.703911
Vineyard Christian Fellowship,Kansas City, MO,2000,VINE,39.100105,-94.578142
Woodcrest Chapel,Columbia, MO,2200,UNK,55.619517,37.506776
Forerunner Christian Fellowship,Kansas City, MO,2000,NONDENOM,39.100105,-94.578142
Faith Church of St. Louis,Fenton, MO,4000,NONDENOM,38.513199,-90.440058
Central Assembly of God Church,Springfield, MO,2468,AG,37.216678,-93.292037
Second Baptist Church,Springfield, MO,2543,SBC,37.216678,-93.292037
Friendly Temple Missionary Baptist Church,Saint Louis, MO,3500,BAPT,38.626426,-90.199585
Saint John Lutheran Church,Ellisville, MO,2300,LUTH,38.594637,-90.584838
Life Center,Saint Louis, MO,2500,NONDENOM,38.626426,-90.199585
College Heights Christian Church,Joplin, MO,1971,CHRISTIAN,37.08418,-94.51323
Colonial Presbyterian Church,Kansas City, MO,2200,PCA,39.100105,-94.578142
Grace Church,Maryland Heights, MO,3800,NONDENOM,38.715051,-90.435999
Saint Louis Family Church,Chesterfield, MO,6000,NONDENOM,55.752496,37.58938
Element Church,Wentzville, MO,2500,NONDENOM,38.824414,-90.868312
The Crossing,Columbia, MO,3400,NONDENOM,55.619517,37.506776
Church on the Rock,Saint Peters, MO,4900,NONDENOM,38.791612,-90.595847
Christ Church of Oronogo,Oronogo, MO,2506,CHRISTIAN,37.188391,-94.470227
Lees Summit Community Church,Lee's Summit, MO,2001,UNK,38.910716,-94.38213
Calvary Church,Saint Peters, MO,3500,EF,38.791612,-90.595847
Word of Life Church,Saint Joseph, MO,4000,NONDENOM,39.768606,-94.846632
Harvester Christian Church,Saint Charles, MO,3286,CHRISTIAN,38.794625,-90.519829
The Crossing,Chesterfield, MO,6000,NONDENOM,55.752496,37.58938
First Baptist Raytown,Raytown, MO,2000,SBC,39.016843,-94.463047
LifeChurch,St Louis, MO,2000,NONDENOM,38.626426,-90.199585
Pleasant Valley Baptist Church,Liberty, MO,2905,SBC,55.753269,37.635091
The Journey Fellowship,Saint Louis, MO,3300,NONDENOM,38.626426,-90.199585
La Croix United Methodist Church,Cape Girardeau, MO,1943,UMC,37.303493,-89.523036
Ridgecrest Baptist Church,Springfield, MO,1900,SBC,37.216678,-93.292037
First Baptist Church,Arnold, MO,2385,SBC,38.422671,-90.375829
North Point Church,Springfield, MO,4500,AG,37.216678,-93.292037
Sheffield Family Life Center,Kansas City, MO,5135,AG,39.100105,-94.578142
Cape First,Cape Girardeau, MO,2800,AG,37.303493,-89.523036
James River Assembly,Ozark, MO,8246,AG,37.021425,-93.205303
First Baptist Church,Arnold, MO,2385,SBC,38.422671,-90.375829
Abundant Life Baptist Church,Lee's Summit, MO,2000,NONDENOM,38.910716,-94.38213
Colonial Hills Baptist Church,Southaven, MS,2000,SBC,34.988982,-90.012591
Pinelake Church,Brandon, MS,9091,SBC,32.273148,-89.986806
Crossgates Baptist Church,Brandon, MS,2286,SBC,32.273148,-89.986806
Broadmoor Baptist Church,Madison, MS,2000,SBC,32.461809,-90.115364
The Orchard,Tupelo, MS,2300,UMC,34.257607,-88.703386
Christ United Methodist Church,Jackson, MS,1800,UMC,32.299002,-90.184769
Temple Baptist Church,Hattiesburg, MS,3000,SBC,31.327119,-89.290339
Harrisburg Baptist Church,Tupelo, MS,2000,BAPT,34.257607,-88.703386
Brown Missionary Baptist Church,Southaven, MS,3257,BAPT,34.988982,-90.012591
Woodlawn Church,Columbia, MS,2500,UPC,31.251844,-89.83758
First Baptist Church,Brandon, MS,1900,SBC,32.273148,-89.986806
First Baptist Church,Jackson, MS,2500,SBC,32.299002,-90.184769
Harvest Church,Billings, MT,2500,EVAN,45.787496,-108.49607
Faith Chapel,Billings, MT,4500,4SQ,45.787496,-108.49607
Kalispell Christian Center,Kalispell, MT,2500,AG,48.202158,-114.315321
Mud Creek Baptist Church,Hendersonville, NC,2590,SBC,35.318728,-82.460953
Mecklenburg Community Church,Charlotte, NC,2000,UNK,35.227209,-80.843083
First Assembly of God,Winston-Salem, NC,3300,AG,36.099813,-80.244052
Calvary Chapel,Apex, NC,2000,CAL,35.732535,-78.850552
Port City Community Church,Wilmington, NC,5200,UNK,34.225728,-77.944711
Lake Forest Church,Huntersville, NC,2000,EPC,35.410828,-80.84293
Saint Mark's Church,Burlington, NC,2000,UNK,36.095692,-79.437799
Crosspointe Church of Cary,Cary, NC,2046,CHRISTIAN,35.788289,-78.781208
Gospel Light Baptist Church,Walkertown, NC,2000,BAPT,36.174827,-80.152159
Carmel Baptist Church,Matthews, NC,2647,SBC,35.115953,-80.722439
Hickory Grove Baptist Church,Charlotte, NC,4539,SBC,35.227209,-80.843083
The Summit Church,Kernersville, NC,2700,BGC,36.119859,-80.073653
First Baptist of Jacksonville,Jacksonville, NC,2200,BAPT,34.749475,-77.420822
Manna Church,Fayetteville, NC,7300,UNK,35.052576,-78.878292
C3 Church,Clayton, NC,3852,NONDENOM,35.650711,-78.456391
Colonial Baptist Church,Cary, NC,3800,BAPT,35.788289,-78.781208
Hope Community Church,Raleigh, NC,7854,SBC,35.780398,-78.639099
Providence Baptist Church,Raleigh, NC,2500,SBC,35.780398,-78.639099
Calvary Baptist Church,Winston Salem, NC,5000,SBC,36.099813,-80.244052
Mid Way Baptist Church,Raleigh, NC,2600,NONDENOM,35.780398,-78.639099
Crossroads Fellowship Church,Raleigh, NC,3500,NONDENOM,35.780398,-78.639099
Grace Covenant Church,Cornelius, NC,2600,4SQ,35.481705,-80.859001
Westover Church,Greensboro, NC,4000,NONDENOM,36.072636,-79.791975
Bethlehem Church,Gastonia, NC,2700,SBC,35.262216,-81.183879
The Cove Church,Mooresville, NC,4200,UNK,35.58486,-80.810072
Newhope church,Durham, NC,4235,NONDENOM,35.996653,-78.901805
Destiny Christian Center,Greensboro, NC,2100,NONDENOM,36.072636,-79.791975
Bay Leaf Baptist Church,Raleigh, NC,1400,SBC,35.780398,-78.639099
Saint Paul Baptist Church,Charlotte, NC,4500,NBC,35.227209,-80.843083
The Park Church,Charlotte, NC,6000,UNK,35.227209,-80.843083
Friendship Missionary Baptist Church,Charlotte, NC,2700,BAPT,35.227209,-80.843083
Concord First Assembly,Concord, NC,3000,AG,35.409418,-80.580005
Village Baptist Church,Fayetteville, NC,1800,SBC,35.052576,-78.878292
Mount Zion Baptist Church,Greensboro, NC,2800,BAPT,36.072636,-79.791975
The Summit Church,Durham, NC,6639,SBC,35.996653,-78.901805
World Overcomers Christian Church,Durham, NC,10000,NONDENOM,35.996653,-78.901805
Church at Charlotte,Charlotte, NC,2000,EF,35.227209,-80.843083
Northside Baptist Church,Charlotte, NC,2000,BAPT,35.227209,-80.843083
Elevation Church,Matthews, NC,22200,NONDENOM,35.115953,-80.722439
Elevation Baptist Church,Raleigh, NC,2000,BAPT,35.780398,-78.639099
Christian Faith Center,Creedmoor, NC,5000,NONDENOM,36.122741,-78.686227
St. Peter's Church and World Outreach Center,Winston-Salem, NC,4000,NONDENOM,36.099813,-80.244052
Christ United Methodist Church,Hickory, NC,2162,UMC,35.733331,-81.344292
Southbrook Church,Weddington, NC,2000,NONDENOM,35.022371,-80.760904
Snyder Memorial Baptist Church,Fayetteville, NC,2000,SBC,35.052576,-78.878292
Victory Christian Center,Charlotte, NC,3500,NONDENOM,35.227209,-80.843083
Covenant Love Church,Fayetteville, NC,2000,NONDENOM,35.052576,-78.878292
First Baptist Church,Indian Trail, NC,2537,SBC,35.076814,-80.669235
Forest Hill Church,Charlotte, NC,3000,EPC,35.227209,-80.843083
Northwood Temple Church,Fayetteville, NC,2000,IPHC,35.052576,-78.878292
Christ Covenant Church,Matthews, NC,1800,PCA,35.115953,-80.722439
Calvary Church,Charlotte, NC,2348,NONDENOM,35.227209,-80.843083
Covenant United Methodist Church,Winterville, NC,1825,UMC,35.529051,-77.401076
Central Church of God,Charlotte, NC,6000,COG,35.227209,-80.843083
New Birth-Charlotte,Cornelius, NC,6500,NONDENOM,35.481705,-80.859001
Steele Creek Community Church,Charlotte, NC,2500,NONDENOM,35.227209,-80.843083
Biltmore Baptist Church,Arden, NC,6021,SBC,35.466182,-82.516424
University Park Baptist Church,Charlotte, NC,10000,BAPT,35.227209,-80.843083
Evangel Fellowship,Greensboro, NC,2000,COGIC,36.072636,-79.791975
Bethel Church,Fargo, ND,2500,EF,46.877229,-96.789821
Hope Lutheran Church,Fargo, ND,2500,ELCA,46.877229,-96.789821
King of Kings Lutheran Church,Omaha, NE,2400,LUTH,41.258746,-95.938376
Lincoln Berean Church,Lincoln, NE,5000,NONDENOM,40.808886,-96.707775
College View Seventh Day Adventist Churc,Lincoln, NE,2200,SDA,40.808886,-96.707775
Lifegate Church,Omaha, NE,1800,NONDENOM,41.258746,-95.938376
Westside Church,Omaha, NE,2000,SBC,41.258746,-95.938376
Christ Community Church,Omaha, NE,4200,CMA,41.258746,-95.938376
Bellevue Christian Center,Bellevue, NE,2500,CHRISTIAN,41.143455,-95.912469
Manchester Christian Church,Manchester, NH,2100,CHRISTIAN,42.99564,-71.454789
Bethany at Chester Road,Raymond, NH,2000,NONDENOM,43.036196,-71.183395
Pilgrim Church,Paramus, NJ,2500,KPCA,40.945291,-74.07359
Jacksonville Chapel,Lincoln Park, NJ,2000,NONDENOM,40.726657,-74.177979
Calvary Chapel of Old Bridge,Old Bridge, NJ,4500,CAL,40.414071,-74.30421
Cathedral International,Perth Amboy, NJ,3000,BAPT,40.506772,-74.265423
Kingdom Church,Ewing, NJ,2500,UNK,40.268811,-74.80069
Bethany Church,Wayne, NJ,2500,KPCA,40.949172,-74.23768
Rutgers Community Christian Church,Somerset, NJ,2200,NONDENOM,40.497604,-74.488487
Liquid Church,Morristown, NJ,2000,NONDENOM,40.797038,-74.480987
Calvary Baptist Church,Morristown, NJ,1800,BAPT,40.797038,-74.480987
Princeton Alliance Church,Plainsboro, NJ,1800,CMA,40.333441,-74.600434
Faith Living Christian Center,Pennsauken, NJ,2300,NONDENOM,39.956224,-75.05795
Abundant Life Family Worship Church,New Brunswick, NJ,2200,NONDENOM,40.486217,-74.451817
Agape Family Worship Center,Rahway, NJ,2500,NONDENOM,40.608159,-74.277647
Chodae Community Church,Norwood, NJ,2500,KPCA,40.998153,-73.961804
Faith Fellowship Ministries World Outreach Center,Sayreville, NJ,10100,NONDENOM,40.463536,-74.36185
Saint Matthew's Baptist Church,Williamstown, NJ,9000,UNK,39.686226,-74.995168
Evangel Church,Scotch Plains, NJ,2117,AG,40.65538,-74.389873
The Presbyterian Church of Toms River,Toms River, NJ,2500,PRES,39.953736,-74.197958
Bethany Baptist Church,Lindenwold, NJ,6000,NONDENOM,39.812002,-75.005563
Christ Church,Rockaway, NJ,5000,NONDENOM,40.90121,-74.514323
Metropolitan Baptist Church,Newark, NJ,2500,BAPT,40.735657,-74.172367
Gloucester County Community Church,Sewell, NJ,2500,NONDENOM,39.766503,-75.144344
Hawthorne Gospel Church,Hawthorne, NJ,2200,NONDENOM,40.949265,-74.153755
First Baptist Church of Lincoln Gardens,Somerset, NJ,6000,BAPT,40.497604,-74.488487
Fellowship Alliance Chapel,Medford, NJ,2500,CMA,39.900947,-74.823496
Legacy Church,Albuquerque, NM,10100,NONDENOM,35.084103,-106.650985
CopperPointe Church,Albuquerque, NM,2000,NONDENOM,35.084103,-106.650985
Destiny Center Church,Rio Rancho, NM,1800,NONDENOM,35.269381,-106.632819
Faith Christian Family Church,Clovis, NM,2000,NONDENOM,34.405472,-103.205071
Pinon Hills Community Church,Farmington, NM,2000,NONDENOM,36.729115,-108.205445
Calvary Baptist Church,Las Cruces, NM,1800,SBC,32.314035,-106.779808
Sagebrush Community Church,Albuquerque, NM,9000,NONDENOM,35.084103,-106.650985
Calvary Chapel of Albuquerque,Albuquerque, NM,16830,CAL,35.084103,-106.650985
Hoffmantown Church,Albuquerque, NM,1800,SBC,35.084103,-106.650985
Casa del Rey,Alburquerque, NM,3100,AG,35.084103,-106.650985
The Crossing A Christian Church,Las Vegas, NV,2577,CHRISTIAN,36.167256,-115.148516
Living Stones Church,Reno, NV,2297,NONDENOM,39.526121,-119.812658
Victory Missionary Baptist Church,Las Vegas, NV,2000,UNK,36.167256,-115.148516
Grace Church,Reno, NV,2500,NONDENOM,39.526121,-119.812658
Grace Community Church,Reno, NV,2800,NONDENOM,39.526121,-119.812658
Shadow Hills Church,Las Vegas, NV,2547,SBC,36.167256,-115.148516
Apex Church,Las Vegas, NV,3500,NONDENOM,36.167256,-115.148516
Summit Christian Church,Sparks, NV,2467,CHRISTIAN,39.540468,-119.748724
International Church of Las Vegas,Las Vegas, NV,5000,AG,36.167256,-115.148516
Central Christian Church,Henderson, NV,21055,CHRISTIAN,36.030113,-114.982619
Canyon Ridge Christian Church,Las Vegas, NV,6500,CHRISTIAN,36.167256,-115.148516
Calvary Chapel Spring Valley,Las Vegas, NV,3000,CAL,36.167256,-115.148516
The Church at South Las Vegas,Henderson, NV,3200,NONDENOM,36.030113,-114.982619
LifePoint Church,Minden, NV,2000,NONDENOM,38.954249,-119.765617
Full Gospel Tabernacle Church,Orchard Park, NY,2200,CHRISTIAN,42.767038,-78.743552
Abyssinian Baptist Church,Harlem, NY,4000,NBC,40.809752,-73.949986
Saint Paul Community Baptist,Brooklyn, NY,2000,NONDENOM,40.652601,-73.949721
Elim International Fellowship,Brooklyn, NY,2000,UNK,40.652601,-73.949721
El Centro Cristiano Adonai,Corona, NY,1900,UNK,40.746959,-73.860146
Iglesia Pentecostal Macedonia,New York, NY,4550,PENT,40.750183,-73.983759
Bethany Baptist Church,Brooklyn, NY,1800,SBC,40.652601,-73.949721
The Wesleyan Church of Hamburg,Hamburg, NY,1900,WES,42.716293,-78.828717
Thessalonia Baptist Church,Bronx, NY,2000,BAPT,40.847019,-73.897212
Bridge Street AME,Brooklyn, NY,2500,AME,40.652601,-73.949721
Times Square Church,New York, NY,8000,UNK,40.750183,-73.983759
International Christian Center,Staten Island, NY,2450,AG,40.583456,-74.149605
Eastern Hills Wesleyan Church,Williamsville, NY,2500,WES,42.963784,-78.737726
Smithtown Gospel Tabernacle,Smithtown, NY,2700,NONDENOM,40.855931,-73.200669
Metro International Church,Brooklyn, NY,2400,NONDENOM,40.652601,-73.949721
Concord Baptist Church of Christ,Brooklyn, NY,2500,BAPT,40.652601,-73.949721
Zion Dominion Global Ministries,Amherst, NY,2000,COGIC,40.768888,-73.954511
The Father's House,Rochester, NY,3500,UNK,43.157285,-77.615214
Northway Fellowship Church,Clifton Park, NY,2000,NONDENOM,40.770616,-73.994759
Redeemer Presbyterian Church,New York City, NY,5200,PCA,40.740281,-73.994801
Christian Faith Fellowship Family Church,Middletown, NY,2500,NONDENOM,41.45011,-74.416481
Christ Tabernacle,Glendale, NY,4000,NONDENOM,40.701492,-73.886803
Grace Fellowship Church,Latham, NY,3400,NONDENOM,42.744406,-73.761563
Upper Room Christian World Center,Dix Hills, NY,2200,NONDENOM,40.804821,-73.33623
Brooklyn Tabernacle,Brooklyn, NY,10000,UNK,40.652601,-73.949721
The Riverside Church,New York, NY,2500,NONDENOM,40.750183,-73.983759
Calvary Baptist Church,New York, NY,2000,BAPT,40.750183,-73.983759
Highland Church,Jamaica, NY,3000,NONDENOM,40.702913,-73.800643
Greater Centennial A.M.E. Zion Church,Mount Vernon, NY,2100,AME,40.723374,-73.838697
Grace Community Church,Washingtonville, NY,2293,BGC,40.954222,-73.737414
Love Fellowship Tabernacle,Brooklyn, NY,2000,NONDENOM,40.652601,-73.949721
Abundant Life Christian Center,East Syracuse, NY,2000,PENT,43.065345,-76.078533
Emmanuel Baptist Church,Brooklyn, NY,2200,ABC,40.652601,-73.949721
The Chapel,Getzville, NY,4800,NONDENOM,43.024324,-78.767833
Promise New York Church,Flushing, NY,3800,AG,40.76543,-73.817429
Perfecting Faith Church,Freeport, NY,2000,UNK,40.657607,-73.583583
Bethel Gospel Tabernacle,Jamaica, NY,2000,NONDENOM,40.702913,-73.800643
Christian Cultural Center,Brooklyn, NY,13000,NONDENOM,40.652601,-73.949721
Canaan Baptist Church of Christ,New York, NY,3000,BAPT,40.750183,-73.983759
The Korean Presbyterian Church of Queens,Flushing, NY,3000,KPCA,40.76543,-73.817429
Allen AME Church,Jamaica, NY,6150,AME,40.702913,-73.800643
Grace Church,Middleburg Heights, OH,3600,UNK,41.36144,-81.812912
Cleveland Baptist Church,Cleveland, OH,2010,SBC,41.505161,-81.693445
Christ's Church At Mason,Mason, OH,2519,CHRISTIAN,39.360059,-84.309939
Reynoldsburg United Methodist Church,Reynoldsburg, OH,2200,UMC,39.954786,-82.812119
The Chapel,Akron, OH,7347,NONDENOM,41.083064,-81.518485
Apex Community Church,Kettering, OH,2500,SBC,39.689504,-84.168827
Mount Zion Baptist Church of Oakwood Village,Oakwood Village, OH,3000,BAPT,41.365333,-81.507896
Akron Baptist Temple,Akron, OH,3000,NONDENOM,41.083064,-81.518485
Jersey Baptist Church,Pataskala, OH,1900,SBC,39.995573,-82.674237
Solid Rock Church,Monroe, OH,4000,NONDENOM,39.443269,-84.363365
SouthBrook Christian Church,Miamisburg, OH,3100,CHRISTIAN,39.642836,-84.286608
Faith Family Church,Canton, OH,3000,NONDENOM,40.798546,-81.374951
First Church of God,Columbus, OH,4000,COG,39.96226,-83.000707
Canton Baptist Temple,Canton, OH,1800,BAPT,40.798546,-81.374951
World Harvest Church,Canal Winchester, OH,5000,NONDENOM,39.842822,-82.805646
CedarCreek.tv,Perrysburg, OH,9155,NONDENOM,41.557118,-83.627932
Vineyard Christian Fellowship,Beavercreek, OH,3000,VINE,39.709226,-84.063269
Church of the Open Door,Elyria, OH,2500,NONDENOM,41.367319,-82.107358
The Chapel,Sandusky, OH,2200,NONDENOM,41.4561,-82.711581
Christ Emmanuel Christian Fellowship,Cincinnati, OH,2000,NONDENOM,39.101454,-84.51246
Crossroads,Cincinnati, OH,16792,NONDENOM,39.101454,-84.51246
Far Hills Community Church,Dayton, OH,2000,SBC,39.758948,-84.191607
The House of the Lord,Akron, OH,3000,NONDENOM,41.083064,-81.518485
Victory Christian Center,Lowellville, OH,2500,AG,41.035942,-80.536226
Fairfield Christian Church,Lancaster, OH,2000,NONDENOM,39.713675,-82.599329
Upper Arlington Lutheran Church,Columbus, OH,2200,LUTH,39.96226,-83.000707
The Word Church,Cleveland, OH,7000,UNK,41.505161,-81.693445
Shiloh Baptist Church,Dayton, OH,2500,BAPT,39.758948,-84.191607
Cuyahoga Valley Community Church,Broadview Heights, OH,2000,UNK,41.313943,-81.685127
Lima Community Church,Lima, OH,1888,NAZ,40.739979,-84.105006
Cornerstone Church,Toledo, OH,4000,NONDENOM,41.652914,-83.537817
Grace Church,Norton, OH,4000,UNK,41.029222,-81.63818
Heritage Christian Church,Westerville, OH,2700,CHRISTIAN,40.126139,-82.929529
RiverTree Christian Church,Massillon, OH,2600,CHRISTIAN,40.796512,-81.52316
Parkside Church,Chagrin Falls, OH,4000,NONDENOM,41.436589,-81.385506
Montgomery Community Church,Cincinnati, OH,2500,ABC,39.101454,-84.51246
Lincoln Heights Missionary Baptist Church,Cincinnati, OH,3200,BAPT,39.101454,-84.51246
Crossroads Community Church,Mansfield, OH,5500,NONDENOM,40.75839,-82.515447
Columbus Christian Center Church,Columbus, OH,2500,NONDENOM,39.96226,-83.000707
Olivet Institutional Baptist Church,Cleveland, OH,2000,UNK,41.505161,-81.693445
NewPointe Community Church,Dover, OH,3200,METH,40.521338,-81.474148
New Life Church,Gahanna, OH,1800,NONDENOM,40.019563,-82.879136
Christian Life Center,Dayton, OH,2700,AG,39.758948,-84.191607
Grace Brethren Church of Columbus,Westerville, OH,2500,BRETHREN,40.126139,-82.929529
Christ Community Chapel,Hudson, OH,4500,NONDENOM,41.240056,-81.440667
Cypress Wesleyan Church,Galloway, OH,3200,WES,39.913921,-83.163334
Man's Authentic Nature,Loveland, OH,4000,VINE,39.26768,-84.274604
Fairhaven Church,Centerville, OH,3500,CMA,39.628393,-84.159382
First Christian Church,Springfield, OH,2074,CHRISTIAN,39.923405,-83.810138
Vineyard Community Church,Cincinnati, OH,5829,VINE,39.101454,-84.51246
Grove City Church of the Nazarene,Grove City, OH,3446,NAZ,39.881452,-83.092965
Xenos Christian Fellowship,Columbus, OH,5000,NONDENOM,39.96226,-83.000707
New Salem Baptist Church,Columbus, OH,2000,BAPT,39.96226,-83.000707
Only Believe Ministries Christian Center,Botkins, OH,2000,NONDENOM,40.467826,-84.180502
Vineyard Church of Columbus,Westerville, OH,7827,VINE,40.126139,-82.929529
Ginghamsburg United Methodist Church,Tipp City, OH,4600,UMC,39.958389,-84.172164
First Baptist Church,Oklahoma City, OK,2000,SBC,35.472989,-97.517054
Edmond's First Baptist Church,Edmond, OK,2000,SBC,35.657137,-97.464904
Crossroads Cathedral,Oklahoma City, OK,2500,AG,35.472989,-97.517054
Boston Avenue United Methodist Church,Tulsa, OK,2004,UMC,36.155681,-95.992911
Asbury United Methodist Church,Tulsa, OK,3274,UMC,36.155681,-95.992911
Westmoore Community Church,Oklahoma City, OK,2000,EC,35.472989,-97.517054
Faith Tabernacle,Oklahoma City, OK,2000,AG,35.472989,-97.517054
People's Church,Oklahoma City, OK,6000,AG,35.472989,-97.517054
Grace Church,Broken Arrow, OK,1800,NONDENOM,36.052599,-95.79082
Victory Christian Center,Tulsa, OK,9500,UNK,36.155681,-95.992911
LifeChurch.tv,Edmond, OK,30000,EC,35.657137,-97.464904
Journey Church,Norman, OK,3300,EC,35.222572,-97.439482
Cathedral of Praise,Oklahoma City, OK,1800,PENT,35.472989,-97.517054
First Baptist Church,Broken Arrow, OK,2100,SBC,36.052599,-95.79082
Church at Battle Creek,Broken Arrow, OK,2092,SBC,36.052599,-95.79082
Rhema Bible Church,Tulsa, OK,5500,UNK,36.155681,-95.992911
Broken Arrow Baptist Church,Tulsa, OK,2092,SBC,36.155681,-95.992911
Crossings Community Church,Oklahoma City, OK,5500,NONDENOM,35.472989,-97.517054
Guts Church,Tulsa, OK,4000,NONDENOM,36.155681,-95.992911
Memorial Road Church of Christ,Edmond, OK,2600,COC,35.657137,-97.464904
Church on the Move,Tulsa, OK,10000,NONDENOM,36.155681,-95.992911
Destiny Church,Broken Arrow, OK,1800,NONDENOM,36.052599,-95.79082
Victory Life Family Worship Center,Durant, OK,4000,UNK,33.991976,-96.377676
Southwest Baptist Church,Oklahoma City, OK,2500,BAPT,35.472989,-97.517054
Church of the Harvest,Oklahoma City, OK,2500,NONDENOM,35.472989,-97.517054
Church of the Servant,Oklahoma City, OK,1992,UMC,35.472989,-97.517054
Bethany First Church of the Nazarene,Bethany, OK,2361,NAZ,35.518673,-97.632265
Council Road Baptist Church,Bethany, OK,2300,SBC,35.518673,-97.632265
Henderson Hills Baptist Church,Edmond, OK,2500,SBC,35.657137,-97.464904
First Baptist Church Altus,Altus, OK,2000,SBC,34.638126,-99.333975
Victory Church,Oklahoma City, OK,8000,NONDENOM,35.472989,-97.517054
Metropolitan Bible Church,Ottawa, ON,2500,NONDENOM,45.421143,-75.690057
Prayer Palace Church,Toronto, ON,2500,NONDENOM,43.653482,-79.383935
Agincourt Pentecostal Church,Toronto, ON,2200,PAC,43.653482,-79.383935
The Meeting House,Oakville, ON,5007,BIC,43.447436,-79.666672
Richmond Hill Chinese Community Church,Richmond Hill, ON,2800,EVAN,43.880078,-79.439392
The Peoples Church,Toronto, ON,3800,NONDENOM,43.653482,-79.383935
Bramalea Baptist Church,Bramalea, ON,1800,EVAN,43.720472,-79.72187
North Park Community Church,London, ON,2200,NONDENOM,42.983675,-81.249607
Morning Star Community Church,Salem, OR,2500,NONDENOM,44.939157,-123.033121
Cedar Mill Bible Church,Portland, OR,1900,NONDENOM,45.520247,-122.674195
City Bible Church,Portland, OR,3500,NONDENOM,45.520247,-122.674195
Westside Church,Bend, OR,3500,4SQ,44.058173,-121.31531
Sunset Presbyterian Church,Portland, OR,2300,PCA,45.520247,-122.674195
Good Shepherd Community Church,Boring, OR,2300,NONDENOM,45.430072,-122.374059
Beaverton Foursquare Church,Beaverton, OR,5600,4SQ,45.487172,-122.80378
Salem First Church of the Nazarene,Salem, OR,2000,NAZ,44.939157,-123.033121
Table Rock Fellowship,Central Point, OR,2000,NONDENOM,42.376782,-122.912721
Rolling Hills Community Church,Tualatin, OR,2900,NONDENOM,45.383855,-122.766351
Portland Christian Center,Portland, OR,2000,AG,45.520247,-122.674195
Abundant Life Church,Damascus, OR,2426,CHRISTIAN,45.417626,-122.458985
First Baptist Church Eugene,Eugene, OR,3000,CBA,44.050505,-123.095051
Applegate Christian Fellowship,Jacksonville, OR,7000,CAL,42.314411,-122.965346
Southlake Foursquare Church,West Linn, OR,2500,4SQ,45.365676,-122.612314
Solid Rock Church,Portland, OR,6000,NONDENOM,45.520247,-122.674195
Imago Dei Community,Portland, OR,2000,UNK,45.520247,-122.674195
East Hill Foursquare Church,Gresham, OR,2800,4SQ,45.499748,-122.430977
Salem Alliance Church,Salem, OR,2600,CMA,44.939157,-123.033121
King Street Church,Chambersburg, PA,2000,UNK,39.94059,-77.659862
The Worship Center,Lancaster, PA,2150,UNK,40.03813,-76.305669
Victory Family Church,Cranberry Twp, PA,2000,UNK,40.71147,-80.107235
Christ Community Church,Camp Hill, PA,2000,NONDENOM,40.239812,-76.919974
Calvary Chapel of Philadelphia,Philadelphia, PA,10000,CAL,39.952724,-75.163526
Christian Life Assembly,Camp Hill, PA,2900,AG,40.239812,-76.919974
Bright Hope Baptist Church,Philadelphia, PA,2000,BAPT,39.952724,-75.163526
Dove Christian Fellowship Church,Ephrata, PA,2000,UNK,40.179911,-76.178924
Parker Hill Community Church,Scranton, PA,1950,NONDENOM,41.408687,-75.662129
West Shore Evangelical Free Church,Mechanicsburg, PA,2500,EF,40.210197,-77.004728
Calvary Church,Lancaster, PA,2500,NONDENOM,40.03813,-76.305669
Pocono Community Church,Mount Pocono, PA,2000,AG,41.122099,-75.3647
Enon Tabernacle Baptist Church,Philadelphia, PA,4150,BAPT,39.952724,-75.163526
Pocono Community Church,Tobyhanna, PA,1855,AG,41.177032,-75.417962
LCBC Lives Changed By Christ,Manheim, PA,13854,NONDENOM,40.163736,-76.395243
Christian Life Center,Bensalem, PA,1900,AG,40.104555,-74.951279
Covenant Church of Pittsburgh,Pittsburgh, PA,2000,NONDENOM,40.441694,-79.990086
Glad Tidings Church,Reading, PA,2689,AG,40.335345,-75.92795
The Bible Chapel,McMurray, PA,2500,UNK,40.279005,-80.083861
Church of the Saviour,Wayne, PA,2000,UNK,40.044015,-75.387862
Mount Ararat Baptist Church,Pittsburgh, PA,4800,BAPT,40.441694,-79.990086
Deliverance Evangelistic Church,Philadelphia, PA,4000,EVAN,39.952724,-75.163526
Sharon Baptist Church,Philadelphia, PA,5000,SBC,39.952724,-75.163526
Allegheny Center Alliance Church,Pittsburgh, PA,2700,CMA,40.441694,-79.990086
The Greater White Rock Baptist Church,Philadelphia, PA,3000,BAPT,39.952724,-75.163526
Calvary Fellowship Church,Downingtown, PA,2000,NONDENOM,40.006496,-75.703274
Worship Center,Lancaster, PA,2500,NONDENOM,40.03813,-76.305669
Living Word Community Church,York, PA,2500,NONDENOM,39.962398,-76.727392
Christian Stronghold Baptist Church,Philadelphia, PA,2500,BAPT,39.952724,-75.163526
Calvary Church,Souderton, PA,2100,NONDENOM,40.311771,-75.325176
Greater Shiloh Church,Easton, PA,2300,BAPT,40.691608,-75.209987
Lifechurch,Allentown, PA,2000,NONDENOM,40.602206,-75.471279
Evangelical Free Church of Hershey,Hummelstown, PA,2000,EF,40.265368,-76.708303
North Way Christian Community,Wexford, PA,3000,UNK,40.626456,-80.055891
Eglise Nouvelle Vie,Longueuil, PQ,3600,NONDENOM,43.9016229,-78.9501414
Brushy Creek Baptist Church,Taylors, SC,2000,SBC,34.920395,-82.296227
West End Baptist Church,Rock Hill, SC,2000,BAPT,34.924867,-81.025078
Southside Fellowship,Greenville, SC,2000,NONDENOM,34.851354,-82.398488
Lexington Baptist Church,Lexington, SC,1800,SBC,33.980449,-81.237417
Brookwood Church,Simpsonville, SC,6103,SBC,34.737064,-82.254283
Freedom Temple Ministries,Rockhill, SC,2200,NONDENOM,39.085565,-94.585879
Northside Baptist Church,West Columbia, SC,2000,SBC,33.993487,-81.073983
Faith Assembly of God,Summerville, SC,2305,AG,33.01867,-80.17627
Redemption,Greenville, SC,10550,NONDENOM,34.851354,-82.398488
Shandon Baptist Church,Columbia, SC,2500,SBC,34.000749,-81.034331
First Baptist Church Simpsonville,Simpsonville, SC,2081,SBC,34.737064,-82.254283
Rock Springs Baptist Church,Easley, SC,2500,SBC,34.826928,-82.581705
Praise Cathedral Church of God,Greer, SC,2000,COG,34.938136,-82.227212
Marathon Church,Greenville, SC,2500,BAPT,34.851354,-82.398488
Church of the Holy Cross,Sullivan's Island, SC,1800,EPIS,32.764276,-79.835932
Brookland Baptist Church,West Columbia, SC,8075,BAPT,33.993487,-81.073983
Seacoast Church,Mount Pleasant, SC,12000,NONDENOM,32.794065,-79.862585
First Baptist Church,Columbia, SC,3500,SBC,34.000749,-81.034331
Taylors First Baptist Church,Taylors, SC,2300,SBC,34.920395,-82.296227
Grace Church,Greenville, SC,4000,NONDENOM,34.851354,-82.398488
First Baptist North Spartanburg,Spartanburg, SC,2600,SBC,34.949801,-81.932016
NewSpring Church,Anderson, SC,23055,BAPT,34.50686,-82.650626
First Baptist Church,Spartanburg, SC,3200,SBC,34.949801,-81.932016
Riverbend Baptist Church,North Charleston, SC,3500,SBC,32.85462,-79.97481
Barefoot Church,North Myrtle Beach, SC,2000,UNK,33.827841,-78.680032
Bible Way Church of Atlas Road,Columbia, SC,7000,NONDENOM,34.000749,-81.034331
East Cooper Baptist Church,Mount Pleasant, SC,2166,SBC,32.794065,-79.862585
Cedar Creek Church,Aiken, SC,3000,NONDENOM,33.559859,-81.721952
Word of God Church and Ministries,Columbia, SC,2200,NONDENOM,34.000749,-81.034331
Grace Cathedral Ministries,Greenville, SC,2000,UNK,34.851354,-82.398488
Transformation Church,Indian Land, SC,2500,NONDENOM,34.996647,-80.88495
Cornerstone Community Church,Orangeburg, SC,2000,UNK,33.49182,-80.855648
Cathedral of Praise,Charleston, SC,2700,NONDENOM,32.787601,-79.940273
Morningstar Fellowship Church,Fort Mill, SC,2500,NONDENOM,35.00737,-80.945076
Community Bible Church,Beaufort, SC,2000,NONDENOM,32.431581,-80.669829
Celebrate Church,Sioux Falls, SD,3500,UNK,43.546059,-96.731393
Fellowship Bible Church Nashville,Brentwood, TN,2400,NONDENOM,36.032569,-86.782524
Grace Baptist Church,Knoxville, TN,2783,SBC,35.960395,-83.921026
World Overcomers Outreach Ministries Church,Memphis, TN,3000,NONDENOM,35.149022,-90.051629
New Direction Christian Church,Memphis, TN,10948,CHRISTIAN,35.149022,-90.051629
Second Presbyterian Church,Memphis, TN,3600,PCA,35.149022,-90.051629
New Vision Baptist Church,Murfreesboro, TN,2150,SBC,35.84604,-86.39211
Grace Chapel,Franklin, TN,3500,CAL,35.925206,-86.868942
Abba's House/Central Baptist,Hixson, TN,1750,SBC,35.155014,-85.22835
Fellowship Bible Church,Jackson, TN,3750,UNK,35.614445,-88.817742
Christ Presbyterian Church,Nashville, TN,2000,PCA,36.162277,-86.774298
Grace Community Church,Clarksville, TN,2150,UNK,36.527761,-87.35887
Brentwood United Methodist Church,Brentwood, TN,2484,UMC,36.032569,-86.782524
Brentwood Baptist Church,Brentwood, TN,5637,SBC,36.032569,-86.782524
Faith Baptist,Bartlett, TN,2500,SBC,35.204533,-89.873975
First Baptist Concord,Knoxville, TN,2860,SBC,35.960395,-83.921026
Sevier Heights Baptist Church,Knoxville, TN,3000,SBC,35.960395,-83.921026
Fellowship Evangelical Free Church,Knoxville, TN,2600,EF,35.960395,-83.921026
Life Church of Memphis,Cordova, TN,3000,NONDENOM,35.155645,-89.776196
First Baptist Church,Hendersonville, TN,2653,SBC,36.304918,-86.621443
First Baptist Church,Clarksville, TN,2500,SBC,36.527761,-87.35887
Cornerstone Assembly of God,Madison, TN,4024,AG,36.256165,-86.713886
The People's Church,Franklin, TN,2901,SBC,35.925206,-86.868942
First Baptist Cleveland,Cleveland, TN,2400,SBC,35.159518,-84.876612
Silverdale Baptist Church,Chattanooga, TN,3800,SBC,35.045722,-85.309488
Faith Promise Church,Knoxville, TN,4300,NONDENOM,35.960395,-83.921026
North Boulevard Church of Christ,Murfreesboro, TN,1800,COC,35.84604,-86.39211
St. Stephen Baptist Church,Memphis, TN,2000,BAPT,35.149022,-90.051629
Central Church,Collierville, TN,2500,NONDENOM,35.042036,-89.664527
The Life Church,Memphis, TN,3400,NONDENOM,35.149022,-90.051629
Dallas Bay Baptist Church,Hixson, TN,2500,SBC,35.155014,-85.22835
Ethos Church,Nasvhille, TN,2800,NONDENOM,36.162277,-86.774298
Germantown Baptist Church,Germantown, TN,2000,SBC,35.086758,-89.810086
Christ Church,Nashville, TN,4500,NONDENOM,36.162277,-86.774298
Bellevue Baptist Church,Cordova, TN,6806,SBC,35.155645,-89.776196
New Creation Church,Shelbyville, TN,2500,NONDENOM,35.483406,-86.460272
Bethel World Outreach Center,Brentwood, TN,3500,NONDENOM,36.032569,-86.782524
Mount Vernon Baptist Church,Memphis, TN,3000,BAPT,35.149022,-90.051629
First Baptist Church,Sevierville, TN,2200,SBC,35.868146,-83.561835
Mount Zion Baptist Church,Nashville, TN,10000,BAPT,36.162277,-86.774298
Englewood Baptist Church,Jackson, TN,2500,SBC,35.614445,-88.817742
Hope Presbyterian Church,Cordova, TN,6978,EPC,35.155645,-89.776196
Cokesbury United Methodist Church,Knoxville, TN,2806,UMC,35.960395,-83.921026
Madison Church of Christ,Madison, TN,2150,COC,36.256165,-86.713886
The Fellowship at Two Rivers,Nashville, TN,2000,BAPT,36.162277,-86.774298
First Baptist Church,Millington, TN,2500,SBC,35.341475,-89.897308
Forest Hills Baptist Church,Nashville, TN,2000,SBC,36.162277,-86.774298
Collegedale Church,Collegedale, TN,2800,SDA,35.05313,-85.050228
Cross Point Church,Nashville, TN,5027,NONDENOM,36.162277,-86.774298
Belmont Church,Nashville, TN,2000,NONDENOM,36.162277,-86.774298
Park West Church,Knoxville, TN,2000,COG,35.960395,-83.921026
Woodmont Hills Church of Christ,Nashville, TN,1900,COC,36.162277,-86.774298
World Outreach Church,Murfreesboro, TN,7926,NONDENOM,35.84604,-86.39211
Ridgedale Baptist Church,Chattanooga, TN,2500,BAPT,35.045722,-85.309488
Cummings Street Missionary Baptist,Memphis, TN,3000,BAPT,35.149022,-90.051629
Long Hollow Baptist Church,Hendersonville, TN,7154,SBC,36.304918,-86.621443
Grace Fellowship Church,Johnson City, TN,2000,NONDENOM,36.31344,-82.353473
LifePoint Church,Smyrna, TN,3100,BAPT,35.98246,-86.519949
Temple of Deliverance,Memphis, TN,10000,COGIC,35.149022,-90.051629
Iglesia de Dios Hispana de Nashville,Nashville, TN,2000,PENT,36.162277,-86.774298
New Salem Missionary Baptist Church,Memphis, TN,3100,MISSBAPT,35.149022,-90.051629
Kirby Woods Baptist Church,Memphis, TN,1800,SBC,35.149022,-90.051629
Golden Gate Cathedral,Memphis, TN,4500,NONDENOM,35.149022,-90.051629
Brainerd Baptist Church,Chattanooga, TN,2000,BAPT,35.045722,-85.309488
Central Baptist Bearden,Knoxville, TN,2000,SBC,35.960395,-83.921026
Bayside Baptist Church,Harrison, TN,1300,SBC,35.113684,-85.138009
Lake Providence Missionary Baptist Church,Nashville, TN,2200,MISSBAPT,36.162277,-86.774298
Cedar Springs Presbyterian Church,Knoxville, TN,2700,EPC,35.960395,-83.921026
Trinity Fellowship Church,Amarillo, TX,3500,NONDENOM,35.207219,-101.833825
New Faith Church,Houston, TX,2500,SBC,29.758938,-95.367697
Elevate Life Church,Frisco, TX,4000,NONDENOM,33.150674,-96.823612
The Foundry United Methodist Church,Houston, TX,1800,UMC,29.758938,-95.367697
High Pointe Baptist Church,Austin, TX,2219,SBC,30.271129,-97.7437
Austin Christian Fellowship,Austin, TX,1800,NONDENOM,30.271129,-97.7437
First United Methodist Church Richardson,Richardson, TX,2183,UMC,32.948179,-96.729721
Bear Creek Baptist Church,Katy, TX,3098,SBC,29.785785,-95.824396
Pilgrim Rest Missionary Baptist Church,Dallas, TX,2500,BAPT,32.776272,-96.796856
DFW New Beginnings Church,Irving, TX,3000,NONDENOM,32.829518,-96.944218
Summit Christian Center,San Antonio, TX,2834,NONDENOM,29.4246,-98.495141
Fallbrook Church,Houston, TX,4000,UNK,29.758938,-95.367697
Abundant Life Church of God,San Antonio, TX,2000,COG,29.4246,-98.495141
First United Methodist Church,Mansfield, TX,2039,UMC,32.563192,-97.141677
Bandera Road Community Church,San Antonio, TX,4950,NONDENOM,29.4246,-98.495141
Antioch Fellowship Missionary Baptist Church,Dallas, TX,2000,MISSBAPT,32.776272,-96.796856
The Oaks Fellowship,Red Oak, TX,2700,AG,32.525851,-96.809011
Cornerstone Church,San Antonio, TX,17000,NONDENOM,29.4246,-98.495141
Place for Life,San Antonio, TX,3000,NONDENOM,29.4246,-98.495141
Brentwood Baptist Church,Houston, TX,3000,SBC,29.758938,-95.367697
Stonebriar Community Church,Frisco, TX,4500,NONDENOM,33.150674,-96.823612
Greater Mount Zion Baptist Church,Austin, TX,1800,BAPT,30.271129,-97.7437
Shoreline Christian Center,Austin, TX,5000,NONDENOM,30.271129,-97.7437
Christ Fellowship,McKinney, TX,2100,NONDENOM,33.19765,-96.615447
Woodlands Church,The Woodlands, TX,18385,SBC,30.173419,-95.504686
Christ Church Plano,Plano, TX,2500,ANGLICAN,33.013676,-96.69251
Life Tabernacle,Houston, TX,3000,UNK,29.758938,-95.367697
Grace Outreach Center,Plano, TX,4300,NONDENOM,33.013676,-96.69251
Watermark Community Church,Dallas, TX,8876,NONDENOM,32.776272,-96.796856
First Baptist Church McKinney,McKinney, TX,2301,SBC,33.19765,-96.615447
The Hills Church of Christ,North Richland Hills, TX,4500,COC,32.834295,-97.228903
Covenant Church,Carrollton, TX,11000,NONDENOM,32.953735,-96.890282
New Light Christian Center Church,Houston, TX,13500,UNK,29.758938,-95.367697
Gateway Church,Southlake, TX,28000,NONDENOM,32.941236,-97.134178
Fielder Road Baptist Church,Arlington, TX,2001,SBC,32.735582,-97.107119
Longview Baptist Temple,Longview, TX,2500,BAPT,32.500703,-94.74049
Faithbridge Church,Spring, TX,2200,UMC,30.079883,-95.417255
First Baptist Church Euless,Euless, TX,2435,SBC,32.837073,-97.081954
Denton Bible Church,Denton, TX,5000,NONDENOM,33.215039,-97.133052
Southwest Community Church,Houston, TX,3400,SBC,29.758938,-95.367697
Columbus Avenue Baptist Church,Waco, TX,2500,SBC,31.549333,-97.14667
Champion Forest Baptist Church,Houston, TX,8000,SBC,29.758938,-95.367697
White's Chapel United Methodist Church,Southlake, TX,6149,UMC,32.941236,-97.134178
First Baptist Church of Lubbock,Lubbock, TX,2000,SBC,33.563521,-101.879336
Chapelwood United Methodist Church,Houston, TX,2253,UMC,29.758938,-95.367697
The Austin Stone Community Church,Austin, TX,7428,SBC,30.271129,-97.7437
First Baptist Church,Belton, TX,2000,SBC,31.056013,-97.464453
Green Acres Baptist Church,Tyler, TX,4537,SBC,32.35126,-95.301062
Community Bible Church,San Antonio, TX,14031,NONDENOM,29.4246,-98.495141
Trinity Church,Cedar Hill, TX,2600,AG,32.588807,-96.955368
Lake Arlington Baptist Church,Arlington, TX,2000,SBC,32.735582,-97.107119
Cross Timbers Community Church,Argyle, TX,4600,NONDENOM,33.121232,-97.183348
Wheeler Avenue Baptist Church,Houston, TX,6000,NBC,29.758938,-95.367697
First Baptist Church,Dallas, TX,2632,SBC,32.776272,-96.796856
Calvary Church,Irving, TX,4500,AG,32.829518,-96.944218
Christian Chapel Temple of Faith,Dallas, TX,3500,CME,32.776272,-96.796856
Lakewood Church,Houston, TX,43500,NONDENOM,29.758938,-95.367697
Greater Saint Matthew Church,Houston, TX,3400,SBC,29.758938,-95.367697
Kingsland Baptist Church,Katy, TX,2800,SBC,29.785785,-95.824396
Sunnyvale First Baptist Church,Sunnyvale, TX,2400,SBC,32.796517,-96.560824
Harvest Time Church,Houston, TX,2000,NONDENOM,29.758938,-95.367697
First Baptist Church of Richardson,Richardson, TX,2400,SBC,32.948179,-96.729721
Christian Tabernacle,Houston, TX,4000,UNK,29.758938,-95.367697
Abundant Life Christian Center,La Marque, TX,3000,NONDENOM,29.368567,-94.971313
Clear Creek Community Church,League City, TX,5000,SBC,29.507454,-95.09493
Stonegate Fellowship,Midland, TX,4000,UNK,31.997366,-102.077948
High Point Church,Arlington, TX,6000,NONDENOM,32.735582,-97.107119
Great Commission Baptist Church,Fort Worth, TX,2000,SBC,32.753177,-97.332746
Saint Martin's Episcopal Church,Houston, TX,4000,EPIS,29.758938,-95.367697
Grace Fellowship United Methodist Church,Katy, TX,2442,UMC,29.785785,-95.824396
The Village Church,Flower Mound, TX,10156,SBC,33.028385,-97.08672
Braeswood Assembly of God,Houston, TX,2300,AG,29.758938,-95.367697
Saint John's Downtown United Methodist Church,Houston, TX,2044,UMC,29.758938,-95.367697
Alief Baptist Church,Houston, TX,2406,SBC,29.758938,-95.367697
Prestonwood Baptist Church,Plano, TX,15815,SBC,33.013676,-96.69251
Westover Hills Assembly of God,San Antonio, TX,4314,AG,29.4246,-98.495141
Park Cities Baptist Church,Dallas, TX,2500,SBC,32.776272,-96.796856
Vino Nuevo de El Paso,El Paso, TX,4000,EVAN,31.775415,-106.464634
Lake Pointe Church,Rockwall, TX,11225,SBC,32.931234,-96.459709
Christ Chapel Bible Church,Fort Worth, TX,4500,NONDENOM,32.753177,-97.332746
Grace Bible Church,College Station, TX,2500,NONDENOM,30.595529,-96.307104
Greater Cornerstone Baptist Church,Dallas, TX,4250,SBC,32.776272,-96.796856
Iglesia Cristiana Misericordia,Laredo, TX,2400,AG,27.5237,-99.497352
Overcoming Faith Christian Center,Arlington, TX,2000,UNK,32.735582,-97.107119
Grace Christian Center,Killeen, TX,2000,NONDENOM,31.117144,-97.727796
Church at Sugar Creek,Sugar Land, TX,4500,SBC,29.619679,-95.634946
First Baptist Church Amarillo,Amarillo, TX,2050,SBC,35.207219,-101.833825
Mobberly Baptist Church,Longview, TX,2118,SBC,32.500703,-94.74049
Calvary Houston,Friendswood, TX,2000,NONDENOM,29.5294,-95.201045
First Baptist Church,Pasadena, TX,3250,SBC,29.691063,-95.209101
Austin Ridge Bible Church,Austin, TX,2600,UNK,30.271129,-97.7437
Riverbend Church,Austin, TX,4000,NONDENOM,30.271129,-97.7437
Houston's First Baptist Church,Houston, TX,6458,SBC,29.758938,-95.367697
Antioch Community Church,Waco, TX,2500,NONDENOM,31.549333,-97.14667
Concordia Lutheran Church,San Antonio, TX,3000,LUTH,29.4246,-98.495141
Bent Tree Bible Fellowship,Carrollton, TX,4500,NONDENOM,32.953735,-96.890282
Mount Sinai Missionary Baptist Church,Austin, TX,2200,BAPT,30.271129,-97.7437
Silverlake Church,Pearland, TX,2675,SBC,29.563976,-95.28643
First Evangelical Free Church,Austin, TX,2500,EF,30.271129,-97.7437
Bannockburn Baptist Church,Austin, TX,2000,BAPT,30.271129,-97.7437
Hope Fellowship,Frisco, TX,3100,AG,33.150674,-96.823612
Sagemont Church,Houston, TX,3984,SBC,29.758938,-95.367697
Alamo City Christian Fellowship,San Antonio, TX,2125,SBC,29.4246,-98.495141
Glenview Baptist Church,Fort Worth, TX,2300,SBC,32.753177,-97.332746
Crossroads Christian Church,Grand Prairie, TX,4167,CHRISTIAN,32.745965,-96.997785
Real Life,Corpus Christi, TX,2600,SBC,27.795148,-97.394205
Grace Community Church,Houston, TX,5000,UNK,29.758938,-95.367697
Mount Olive Baptist Church,Arlington, TX,3500,BAPT,32.735582,-97.107119
Mundo De Fe,Carrollton, TX,2000,UNK,32.953735,-96.890282
Bethel's Family,Houston, TX,2700,SBC,29.758938,-95.367697
Concord Church,Dallas, TX,3650,BAPT,32.776272,-96.796856
Pantego Bible Church,Fort Worth, TX,2500,NONDENOM,32.753177,-97.332746
Celebration Church,Georgetown, TX,5000,NONDENOM,30.632694,-97.677231
Bethany Lutheran Church,Austin, TX,2200,LUTH,30.271129,-97.7437
Oakwood Baptist Church,New Braunfels, TX,2447,SBC,29.702827,-98.125735
Christian House of Prayer,Copperas Cove, TX,2500,NONDENOM,31.124062,-97.903079
Fellowship Church,Grapevine, TX,24162,SBC,32.933738,-97.078875
Faith Family Church,Victoria, TX,3000,UNK,28.820293,-96.984865
International Christian Center,Brownsville, TX,2000,UNK,25.914026,-97.489086
Great Hills Baptist Church,Austin, TX,2200,SBC,30.271129,-97.7437
Grace Community Church,Tyler, TX,2450,UNK,32.35126,-95.301062
The Church on Rush Creek,Arlington, TX,3300,SBC,32.735582,-97.107119
Lake Hills Church,Austin, TX,3204,SBC,30.271129,-97.7437
One Community Church,Plano, TX,3000,NONDENOM,33.013676,-96.69251
Mount Corinth Baptist Church,Houston, TX,2000,UNK,29.758938,-95.367697
Chase Oaks Church,Plano, TX,5000,NONDENOM,33.013676,-96.69251
Cielo Vista Church,El Paso, TX,2000,NONDENOM,31.775415,-106.464634
Saturn Road Church of Christ,Garland, TX,1800,COC,32.912624,-96.638883
Cottonwood Creek Baptist Church,Allen, TX,2100,SBC,33.103174,-96.67055
Experience Life,Lubbock, TX,3751,NONDENOM,33.563521,-101.879336
NorthWood Church,Keller, TX,2106,SBC,32.929966,-97.227125
Saintsville Sanctuary Church of God In Christ,Dallas, TX,2000,COGIC,32.776272,-96.796856
First Baptist Church,Midland, TX,2000,SBC,31.997366,-102.077948
Ministerios Bethania USA,Carrollton, TX,2500,UNK,32.953735,-96.890282
Gospel Tabernacle Church,Dallas, TX,3500,NONDENOM,32.776272,-96.796856
Ark Family Church,Conroe, TX,4200,NONDENOM,30.311877,-95.456051
The Fountain of Praise,Houston, TX,9000,SBC,29.758938,-95.367697
Harvest Church,Fort Worth, TX,1800,BAPT,32.753177,-97.332746
Loving Word Fellowship,Houston, TX,2500,BGC,29.758938,-95.367697
First Baptist Church,Wichita Falls, TX,2000,SBC,33.913709,-98.493387
The Church at Bethel's Family,Houston, TX,2000,UNK,29.758938,-95.367697
New Birth Baptist Church,Dallas, TX,3000,UNK,32.776272,-96.796856
McKinney Memorial Bible Church,Fort Worth, TX,2000,NONDENOM,32.753177,-97.332746
Gateway Community Church,Austin, TX,4500,UNK,30.271129,-97.7437
Higher Dimension Church,Houston, TX,3700,SBC,29.758938,-95.367697
Hill Country Bible Church NW,Austin, TX,4600,UNK,30.271129,-97.7437
The Potter's House,Dallas, TX,16140,NONDENOM,32.776272,-96.796856
River Pointe Church,Richmond, TX,3500,UNK,29.582181,-95.760783
First Baptist Church of Hamilton Park,Richardson, TX,3000,BAPT,32.948179,-96.729721
Abundant Living Faith Center,El Paso, TX,12400,NONDENOM,31.775415,-106.464634
Hyde Park Baptist Church,Austin, TX,2067,SBC,30.271129,-97.7437
Bay Area Fellowship,Corpus Christi, TX,6957,SBC,27.795148,-97.394205
Cathedral of Hope,Dallas, TX,1800,UCC,32.776272,-96.796856
The Community of Faith,Houston, TX,6000,UNK,29.758938,-95.367697
Lilly Grove Missionary Baptist Church,Houston, TX,1900,BAPT,29.758938,-95.367697
Alamo Heights United Methodist Church,San Antonio, TX,1800,UMC,29.4246,-98.495141
Westside Baptist Church,Lewisville, TX,2001,BAPT,33.046233,-96.994174
Christ United Methodist Church,Plano, TX,1977,UMC,33.013676,-96.69251
Palm Valley Church,Mission, TX,3700,NONDENOM,26.215907,-98.325293
Valley Creek Church,Flower Mound, TX,3500,NONDENOM,33.028385,-97.08672
Saint Michael and All Angels Episcopal,Dallas, TX,5000,EPIS,32.776272,-96.796856
Iglesia Puerta Del Cielo,El Paso, TX,2500,UNK,31.775415,-106.464634
New Hope Church,Manvel, TX,5686,CHRISTIAN,29.466471,-95.355714
Calvary Baptist Church,Beaumont, TX,2350,SBC,30.086046,-94.101846
Irving Bible Church,Irving, TX,4100,NONDENOM,32.829518,-96.944218
Hillside Christian Church- Amarillo West,Amarillo, TX,8000,CHRISTIAN,35.207219,-101.833825
Sugar Creek Baptist Church,Sugar Land, TX,3730,SBC,29.619679,-95.634946
Antioch Missionary Baptist Church,Beaumont, TX,2800,MISSBAPT,30.086046,-94.101846
Grace Community Church,Plano, TX,1850,UNK,33.013676,-96.69251
Oak Hills Church,San Antonio, TX,8663,COC,29.4246,-98.495141
Inspiring Body of Christ Church,Dallas, TX,8000,UNK,32.776272,-96.796856
Lakeside Baptist Church,Granbury, TX,1800,BAPT,32.440779,-97.792609
Community of Faith,Hockley, TX,6000,UNK,30.025824,-95.845205
First Baptist Church,Arlington, TX,2292,SBC,32.735582,-97.107119
Beltway Park Baptist Church,Abilene, TX,2700,SBC,32.44645,-99.747591
Travis Avenue Baptist Church,Fort Worth, TX,2000,SBC,32.753177,-97.332746
University United Methodist Church,San Antonio, TX,2589,UMC,29.4246,-98.495141
Grace Covenant Church,Austin, TX,3500,NONDENOM,30.271129,-97.7437
Trinity Church,Lubbock, TX,2900,NONDENOM,33.563521,-101.879336
Fellowship of the Parks,Keller, TX,2722,UNK,32.929966,-97.227125
Highland Park United Methodist Church,Dallas, TX,4400,UMC,32.776272,-96.796856
Calvary Austin,Pflugerville, TX,2500,CAL,30.43937,-97.620004
Highland Church of Christ,Abilene, TX,2000,COC,32.44645,-99.747591
Central Baptist Church,College Station, TX,3000,SBC,30.595529,-96.307104
North Church,Carrollton, TX,3500,NONDENOM,32.953735,-96.890282
Church Without Walls,Houston, TX,6411,SBC,29.758938,-95.367697
St Lukes United Methodist Church,Houston, TX,1931,UMC,29.758938,-95.367697
The Heights Baptist Church,Richardson, TX,2623,SBC,32.948179,-96.729721
Tallowood Baptist Church,Houston, TX,2000,BAPT,29.758938,-95.367697
New Song Church,Carrollton, TX,2000,SBC,32.953735,-96.890282
Milestone Church,Keller, TX,2000,UNK,32.929966,-97.227125
Baptist Temple Church,McAllen, TX,2000,SBC,26.204369,-98.230082
March of Faith Ministries,Houston, TX,1800,BAPT,29.758938,-95.367697
Prestoncrest Church of Christ,Dallas, TX,2500,COC,32.776272,-96.796856
Saint John Baptist Church,Grand Prairie, TX,8800,NONDENOM,32.745965,-96.997785
PromiseLand Church,Austin, TX,2400,NONDENOM,30.271129,-97.7437
Second Baptist Church,Houston, TX,20656,SBC,29.758938,-95.367697
Windsor Village United Methodist Church,Houston, TX,5859,UMC,29.758938,-95.367697
The Met (Metropolitan Baptist Church),Houston, TX,3600,BAPT,29.758938,-95.367697
Temple Bible Church,Temple, TX,2800,NONDENOM,31.098207,-97.342785
Park Cities Presbyterian Church,Dallas, TX,5500,PCA,32.776272,-96.796856
Compass Christian Church,Colleyville, TX,3012,CHRISTIAN,32.88096,-97.155012
Oak Cliff Bible Fellowship Church,Dallas, TX,7000,NONDENOM,32.776272,-96.796856
Globe Harvest Church,Dallas, TX,2260,SBC,32.776272,-96.796856
The Woodlands United Methodist Church,The Woodlands, TX,4267,UMC,30.173419,-95.504686
Friendship West Baptist Church,Dallas, TX,9000,ABC,32.776272,-96.796856
Abundant Life Cathedral Church,Houston, TX,5000,NONDENOM,29.758938,-95.367697
Iglesia Rios de Agua Via,Odgen, UT,2000,UNK,41.223005,-111.973843
South Mountain Community Church,Draper, UT,1800,NONDENOM,40.524671,-111.863823
Washington Heights Baptist Church,Ogden, UT,2200,CBA,41.223005,-111.973843
Blue Ridge Community Church,Forest, VA,2000,NONDENOM,37.363753,-79.289749
Faith Landmarks Ministries,Richmond, VA,5000,UNK,37.538509,-77.43428
Korean Central Presbyterian Church,Centreville, VA,4500,PCA,38.840391,-77.428877
Immanuel Bible Church,Springfield, VA,4000,NONDENOM,38.789052,-77.187037
West End Assembly of God,Richmond, VA,2100,AG,37.538509,-77.43428
Grove Church,Portsmouth, VA,2363,BAPT,36.84442,-76.3533
First Baptist Norfolk,Norfolk, VA,2462,SBC,36.896805,-76.260234
Tree of Life Ministries,Lynchburg, VA,2400,PENT,37.413754,-79.142246
Cornerstone Chapel,Leesburg, VA,3250,UNK,39.11545,-77.564545
Reston Bible Church,Dulles, VA,1800,NONDENOM,38.953576,-77.446574
Richmond Outreach Center,Richmond, VA,5500,NONDENOM,37.538509,-77.43428
Atlantic Shores Baptist Church,Virginia Beach, VA,2000,SBC,36.852984,-75.977418
Waters Edge Church,Yorktown, VA,3594,SBC,37.237888,-76.508063
Saint Paul's Baptist Church,Richmond, VA,6257,SBC,37.538509,-77.43428
Christian Fellowship Church,Ashburn, VA,2000,NONDENOM,39.043719,-77.48749
Reston Bible Church,Reston, VA,1800,NONDENOM,38.958374,-77.357981
New Life Providence Church,Virginia Beach, VA,2500,NONDENOM,36.852984,-75.977418
Lifepoint Church,Fredericksburg, VA,1800,UNK,38.303184,-77.46054
Alfred Street Baptist Church,Alexandria, VA,2800,BAPT,38.80511,-77.047023
Antioch Baptist Church,Fairfax Station, VA,1800,SBC,38.800859,-77.32568
Wave Church,Virginia Beach, VA,4000,NONDENOM,36.852984,-75.977418
McLean Bible Church,McLean, VA,16500,NONDENOM,38.934289,-77.177633
Colonial Heights Baptist Church,Colonial Heights, VA,2125,SBC,37.255572,-77.411202
Open Door Presbyterian Church,Herndon, VA,2500,PRES,38.969532,-77.385948
Fairfax Community Church,Fairfax, VA,2500,UNK,38.846224,-77.306373
The Rock Church International,Virginia Beach, VA,2225,NONDENOM,36.852984,-75.977418
Highlands Fellowship,Abingdon, VA,4000,SBC,36.709463,-81.983601
Harvest Life Changers World Ministries,Woodbridge, VA,2000,NONDENOM,38.658172,-77.249705
Spotswood Baptist Church,Fredericksburg, VA,2000,SBC,38.303184,-77.46054
Calvary Revival Church,Norfolk, VA,8000,NONDENOM,36.896805,-76.260234
Bethel Temple Assembly of God,Hampton, VA,2613,AG,37.030097,-76.345206
First Mount Zion Baptist Church,Dumfries, VA,3400,BAPT,38.56762,-77.328038
Liberty Baptist Church,Hampton, VA,3023,SBC,37.030097,-76.345206
Chapel Springs,Bristow, VA,2500,AG,38.723326,-77.536567
Grace Church,Dumfries, VA,2000,NONDENOM,38.56762,-77.328038
Faith Deliverance Christian Center,Norfolk, VA,2000,COC,36.896805,-76.260234
Christ Chapel,Woodbridge, VA,1862,AG,38.658172,-77.249705
The Falls Church Anglican,Falls Church, VA,3000,ANGLICAN,38.882334,-77.171091
Mount Lebanon Missionary Baptist Church,Chesapeake, VA,2300,MISSBAPT,36.718371,-76.24668
Kempsville Presbyterian Church,Virginia Beach, VA,2200,EPC,36.852984,-75.977418
Williamsburg Community Chapel,Williamsburg, VA,2400,UNK,37.270879,-76.707404
Thomas Road Baptist Church,Lynchburg, VA,8350,UNK,37.413754,-79.142246
Faith! Christian Church,Waverly Gardens, VIC,1900,UNK,26.123051,-80.137044
Tabernacle Missionary Baptist Church,Seattle, WA,1800,UNK,47.603832,-122.330062
Washington Cathedral,Redmond, WA,2000,UNK,47.669414,-122.123877
Christ the King Community Church,Bellingham, WA,4000,NONDENOM,48.754401,-122.478836
First Presbyterian Church of Bellevue,Bellevue, WA,2203,PCUSA,40.164516,-80.25395
Calvary Community Church,Sumner, WA,3000,NONDENOM,47.206188,-122.231238
Eastridge Church,Issaquah, WA,1900,AG,47.534878,-122.043297
Walla Walla City Seventh-day Adventist Church,Walla Walla, WA,1800,SDA,46.087376,-118.284614
New Life Church at Renton,Renton, WA,2733,AG,47.479908,-122.20345
Christian Faith Center,Seattle, WA,8000,NONDENOM,47.603832,-122.330062
NewLife Church,Silverdale, WA,3044,AG,47.659409,-122.676632
Westgate Chapel,Edmonds, WA,2000,NONDENOM,47.810574,-122.377495
Church For All Nations,Tacoma, WA,2000,NONDENOM,47.24958,-122.439875
First Presbyterian Church,Spokane, WA,2500,PCA,47.657193,-117.423511
The City Church,Kirkland, WA,6300,NONDENOM,47.685957,-122.192025
River of Life Fellowship,Kent, WA,2000,NONDENOM,47.38269,-122.227027
North County Christ the King Community Church,Lynden, WA,1950,NONDENOM,48.946604,-122.456932
New Life Fellowship-Community Church of Seattle,Bothell, WA,3000,UNK,47.75987,-122.206829
Northwest Church,Federal Way, WA,1800,4SQ,47.313494,-122.33931
New Heights Church,Vancouver, WA,4000,BGC,49.271743,-123.136595
University Presbyterian Church,Seattle, WA,3896,PCUSA,47.603832,-122.330062
Calvary Fellowship Church,Mountlake Terrace, WA,1900,UNK,47.790967,-122.30664
Bethany Community Church,Seattle, WA,2874,NONDENOM,47.603832,-122.330062
Canyon Hills Community Church,Bothell, WA,2100,NONDENOM,47.75987,-122.206829
Life Center,Tacoma, WA,4811,AG,47.24958,-122.439875
Northshore Baptist Church,Kirland, WA,2400,BAPT,47.685957,-122.192025
Gold Creek Community Church,Mill Creek, WA,2389,CHRISTIAN,47.857746,-122.221063
Eastside Foursquare Church,Bothell, WA,2300,4SQ,47.75987,-122.206829
Cascade Community Church,Monroe, WA,2000,NONDENOM,33.794836,-83.713229
Overlake Christian Church,Redmond, WA,3000,CHRISTIAN,47.669414,-122.123877
Westminster Chapel,Bellevue, WA,3000,NONDENOM,40.164516,-80.25395
Champions Centre,Tacoma, WA,5500,NONDENOM,47.24958,-122.439875
Church of Living Water,Olympia, WA,2100,4SQ,47.045102,-122.895008
Cornwall Church,Bellingham, WA,2300,COGA,48.754401,-122.478836
East Lake Community Church,Bothell, WA,4500,NONDENOM,47.75987,-122.206829
Christ the King Community Church,Burlington, WA,17000,NONDENOM,48.473814,-122.330454
Calvary Chapel,Spokane, WA,2600,CAL,47.657193,-117.423511
Grace Community Church,Auburn, WA,2000,CBA,47.307537,-122.230181
Centro Cristiano Ministries,Manson, WA,2000,NONDENOM,36.421812,-78.283051
Saint John Baptist Church,Tacoma, WA,2000,UNK,47.24958,-122.439875
Antioch Bible Church,Redmond, WA,3500,NONDENOM,47.669414,-122.123877
Bethel Church,Richland, WA,2400,UNK,46.28043,-119.275206
Puyallup Foursquare Church,Puyallup, WA,3500,4SQ,47.184901,-122.29214
Crossroads Community Church,Vancouver, WA,4000,UNK,49.271743,-123.136595
Lighthouse Christian Center,Puyallup, WA,1800,CMA,47.184901,-122.29214
Mount Zion Baptist Church,Seattle, WA,2500,BAPT,47.603832,-122.330062
Life Center Foursquare,Spokane, WA,4500,4SQ,47.657193,-117.423511
Living Hope Church,Vancouver, WA,5200,NONDENOM,49.271743,-123.136595
New Life Foursquare Church,Everett, WA,2700,4SQ,47.967306,-122.2014
Crossroads Bible Church,Bellevue, WA,2100,BGC,40.164516,-80.25395
Gateway Fellowship,Poulsbo, WA,2000,AG,47.739137,-122.63928
Elmbrook Church,Brookfield, WI,7013,NONDENOM,43.060567,-88.106479
Christian Faith Fellowship,Milwaukee, WI,6000,COGIC,43.034993,-87.922497
Bethel Lutheran Church,Madison, WI,1800,LUTH,43.074761,-89.383761
Appleton Alliance Church,Appleton, WI,3000,CMA,44.261397,-88.406974
Hales Corners Lutheran Church,Hales Corners, WI,3000,LUTH,42.937515,-88.048698
Eastbrook Church,Milwaukee, WI,2000,NONDENOM,43.034993,-87.922497
Blackhawk Church,Verona, WI,4000,EF,42.990549,-89.533558
Oak Creek Assembly of God,Oak Creek, WI,2229,AG,42.88585,-87.863136
Christ the Rock Community Church,Menasha, WI,3000,NONDENOM,44.202229,-88.446536
Fox River Christian Church,Waukesha, WI,2400,UNK,43.011678,-88.231481
Celebration Church - Bayside,Green Bay, WI,4000,NONDENOM,44.512638,-88.012579
Alliance Missionary Church,Marshfield, WI,1800,CMA,44.668852,-90.171799
Door Creek Church,Madison, WI,2000,EF,43.074761,-89.383761
Central Christian Church,Beloit, WI,1981,CHRISTIAN,42.508327,-89.031784
Journey Church,Kenosha, WI,2400,AG,42.584677,-87.821226
Bible Center Church,Charleston, WV,2500,NONDENOM,38.3506,-81.633281
Chestnut Ridge Church,Morgantown, WV,2400,NONDENOM,39.629681,-79.955944
Maranatha Fellowship Church,Saint Albans, WV,2200,UNK,38.385649,-81.836241
Highland Park Community Church,Casper, WY,2500,COG,42.850119,-106.325138
